PropertyName,Address,Rent,Arrangement,Latitude,Longitude,URL
セリオ落合東中野,東京都中野区東中野５,10,1K,35.7084721,139.689223,https://suumo.jp/?vos=op0014adwstw099000000zzz_01xmsyt111-xe_aud-381243375587:kwd-13279118830:cr-552805620393:sl-:adg-30983744560:dev-c:acc-6530195222:cam-385940440&gclsrc=aw.ds&gad=1&gclid=CjwKCAjwkeqkBhAnEiwA5U-uM0kvzgyzwIVH7Q3URI09yrGZ-p8iecUZxm4H9JavYt9NJaU9y26JEBoCtNEQAvD_BwE
セリオ落合東中野,東京都中野区東中野５,10,1K,35.7084721,139.689223,https://suumo.jp/?vos=op0014adwstw099000000zzz_01xmsyt111-xe_aud-381243375587:kwd-13279118830:cr-552805620393:sl-:adg-30983744560:dev-c:acc-6530195222:cam-385940440&gclsrc=aw.ds&gad=1&gclid=CjwKCAjwkeqkBhAnEiwA5U-uM0kvzgyzwIVH7Q3URI09yrGZ-p8iecUZxm4H9JavYt9NJaU9y27JEBoCtNEQAvD_BwE
セリオ落合東中野,東京都中野区東中野５,10,1K,35.7084721,139.689223,https://suumo.jp/?vos=op0014adwstw099000000zzz_01xmsyt111-xe_aud-381243375587:kwd-13279118830:cr-552805620393:sl-:adg-30983744560:dev-c:acc-6530195222:cam-385940440&gclsrc=aw.ds&gad=1&gclid=CjwKCAjwkeqkBhAnEiwA5U-uM0kvzgyzwIVH7Q3URI09yrGZ-p8iecUZxm4H9JavYt9NJaU9y28JEBoCtNEQAvD_BwE
セリオ落合東中野,東京都中野区東中野５,10,1K,35.7084721,139.689223,https://suumo.jp/?vos=op0014adwstw099000000zzz_01xmsyt111-xe_aud-381243375587:kwd-13279118830:cr-552805620393:sl-:adg-30983744560:dev-c:acc-6530195222:cam-385940440&gclsrc=aw.ds&gad=1&gclid=CjwKCAjwkeqkBhAnEiwA5U-uM0kvzgyzwIVH7Q3URI09yrGZ-p8iecUZxm4H9JavYt9NJaU9y29JEBoCtNEQAvD_BwE
セリオ落合東中野,東京都中野区東中野５,18.5,2LDK,35.7084721,139.689223,https://suumo.jp/?vos=op0014adwstw099000000zzz_01xmsyt111-xe_aud-381243375587:kwd-13279118830:cr-552805620393:sl-:adg-30983744560:dev-c:acc-6530195222:cam-385940440&gclsrc=aw.ds&gad=1&gclid=CjwKCAjwkeqkBhAnEiwA5U-uM0kvzgyzwIVH7Q3URI09yrGZ-p8iecUZxm4H9JavYt9NJaU9y30JEBoCtNEQAvD_BwE
アーバイル落合ツインドレスモーダ,東京都中野区上高田４,8.9,1K,35.7141723,139.677738,https://suumo.jp/?vos=op0014adwstw099000000zzz_01xmsyt111-xe_aud-381243375587:kwd-13279118830:cr-552805620393:sl-:adg-30983744560:dev-c:acc-6530195222:cam-385940440&gclsrc=aw.ds&gad=1&gclid=CjwKCAjwkeqkBhAnEiwA5U-uM0kvzgyzwIVH7Q3URI09yrGZ-p8iecUZxm4H9JavYt9NJaU9y31JEBoCtNEQAvD_BwE
アーバイル落合ツインドレスモーダ,東京都中野区上高田４,13,1LDK,35.7141723,139.677738,https://suumo.jp/?vos=op0014adwstw099000000zzz_01xmsyt111-xe_aud-381243375587:kwd-13279118830:cr-552805620393:sl-:adg-30983744560:dev-c:acc-6530195222:cam-385940440&gclsrc=aw.ds&gad=1&gclid=CjwKCAjwkeqkBhAnEiwA5U-uM0kvzgyzwIVH7Q3URI09yrGZ-p8iecUZxm4H9JavYt9NJaU9y32JEBoCtNEQAvD_BwE
パークハウス東中野リヴゴーシュ,東京都中野区東中野５,14.3,1K,35.7084721,139.689223,https://suumo.jp/?vos=op0014adwstw099000000zzz_01xmsyt111-xe_aud-381243375587:kwd-13279118830:cr-552805620393:sl-:adg-30983744560:dev-c:acc-6530195222:cam-385940440&gclsrc=aw.ds&gad=1&gclid=CjwKCAjwkeqkBhAnEiwA5U-uM0kvzgyzwIVH7Q3URI09yrGZ-p8iecUZxm4H9JavYt9NJaU9y33JEBoCtNEQAvD_BwE
パークハウス東中野リヴゴーシュ,東京都中野区東中野５,18.3,1LDK,35.7084721,139.689223,https://suumo.jp/?vos=op0014adwstw099000000zzz_01xmsyt111-xe_aud-381243375587:kwd-13279118830:cr-552805620393:sl-:adg-30983744560:dev-c:acc-6530195222:cam-385940440&gclsrc=aw.ds&gad=1&gclid=CjwKCAjwkeqkBhAnEiwA5U-uM0kvzgyzwIVH7Q3URI09yrGZ-p8iecUZxm4H9JavYt9NJaU9y34JEBoCtNEQAvD_BwE
パークハウス東中野リヴゴーシュ,東京都中野区東中野５,18.3,1LDK,35.7084721,139.689223,https://suumo.jp/?vos=op0014adwstw099000000zzz_01xmsyt111-xe_aud-381243375587:kwd-13279118830:cr-552805620393:sl-:adg-30983744560:dev-c:acc-6530195222:cam-385940440&gclsrc=aw.ds&gad=1&gclid=CjwKCAjwkeqkBhAnEiwA5U-uM0kvzgyzwIVH7Q3URI09yrGZ-p8iecUZxm4H9JavYt9NJaU9y35JEBoCtNEQAvD_BwE
パークハウス東中野リヴゴーシュ,東京都中野区東中野５,18.3,1LDK,35.7084721,139.689223,https://suumo.jp/?vos=op0014adwstw099000000zzz_01xmsyt111-xe_aud-381243375587:kwd-13279118830:cr-552805620393:sl-:adg-30983744560:dev-c:acc-6530195222:cam-385940440&gclsrc=aw.ds&gad=1&gclid=CjwKCAjwkeqkBhAnEiwA5U-uM0kvzgyzwIVH7Q3URI09yrGZ-p8iecUZxm4H9JavYt9NJaU9y36JEBoCtNEQAvD_BwE
パークハウス東中野リヴゴーシュ,東京都中野区東中野５,18.5,1LDK,35.7084721,139.689223,https://suumo.jp/?vos=op0014adwstw099000000zzz_01xmsyt111-xe_aud-381243375587:kwd-13279118830:cr-552805620393:sl-:adg-30983744560:dev-c:acc-6530195222:cam-385940440&gclsrc=aw.ds&gad=1&gclid=CjwKCAjwkeqkBhAnEiwA5U-uM0kvzgyzwIVH7Q3URI09yrGZ-p8iecUZxm4H9JavYt9NJaU9y37JEBoCtNEQAvD_BwE
パークハウス東中野リヴゴーシュ,東京都中野区東中野５,18.5,1LDK,35.7084721,139.689223,https://suumo.jp/?vos=op0014adwstw099000000zzz_01xmsyt111-xe_aud-381243375587:kwd-13279118830:cr-552805620393:sl-:adg-30983744560:dev-c:acc-6530195222:cam-385940440&gclsrc=aw.ds&gad=1&gclid=CjwKCAjwkeqkBhAnEiwA5U-uM0kvzgyzwIVH7Q3URI09yrGZ-p8iecUZxm4H9JavYt9NJaU9y38JEBoCtNEQAvD_BwE
パークハウス東中野リヴゴーシュ,東京都中野区東中野５,20,1LDK,35.7084721,139.689223,https://suumo.jp/?vos=op0014adwstw099000000zzz_01xmsyt111-xe_aud-381243375587:kwd-13279118830:cr-552805620393:sl-:adg-30983744560:dev-c:acc-6530195222:cam-385940440&gclsrc=aw.ds&gad=1&gclid=CjwKCAjwkeqkBhAnEiwA5U-uM0kvzgyzwIVH7Q3URI09yrGZ-p8iecUZxm4H9JavYt9NJaU9y39JEBoCtNEQAvD_BwE
東京メトロ東西線 落合駅 4階建 築19年,東京都中野区上高田４,8.9,1K,35.7141723,139.677738,https://suumo.jp/?vos=op0014adwstw099000000zzz_01xmsyt111-xe_aud-381243375587:kwd-13279118830:cr-552805620393:sl-:adg-30983744560:dev-c:acc-6530195222:cam-385940440&gclsrc=aw.ds&gad=1&gclid=CjwKCAjwkeqkBhAnEiwA5U-uM0kvzgyzwIVH7Q3URI09yrGZ-p8iecUZxm4H9JavYt9NJaU9y40JEBoCtNEQAvD_BwE
東京メトロ東西線 落合駅 4階建 築19年,東京都中野区上高田４,13,1LDK,35.7141723,139.677738,https://suumo.jp/?vos=op0014adwstw099000000zzz_01xmsyt111-xe_aud-381243375587:kwd-13279118830:cr-552805620393:sl-:adg-30983744560:dev-c:acc-6530195222:cam-385940440&gclsrc=aw.ds&gad=1&gclid=CjwKCAjwkeqkBhAnEiwA5U-uM0kvzgyzwIVH7Q3URI09yrGZ-p8iecUZxm4H9JavYt9NJaU9y41JEBoCtNEQAvD_BwE
東京メトロ東西線 落合駅 2階建 築14年,東京都中野区上高田１,7.3,1K,35.7102195,139.676462,https://suumo.jp/?vos=op0014adwstw099000000zzz_01xmsyt111-xe_aud-381243375587:kwd-13279118830:cr-552805620393:sl-:adg-30983744560:dev-c:acc-6530195222:cam-385940440&gclsrc=aw.ds&gad=1&gclid=CjwKCAjwkeqkBhAnEiwA5U-uM0kvzgyzwIVH7Q3URI09yrGZ-p8iecUZxm4H9JavYt9NJaU9y42JEBoCtNEQAvD_BwE
東京メトロ東西線 落合駅 10階建 築9年,東京都中野区東中野５,10,1K,35.7084721,139.689223,https://suumo.jp/?vos=op0014adwstw099000000zzz_01xmsyt111-xe_aud-381243375587:kwd-13279118830:cr-552805620393:sl-:adg-30983744560:dev-c:acc-6530195222:cam-385940440&gclsrc=aw.ds&gad=1&gclid=CjwKCAjwkeqkBhAnEiwA5U-uM0kvzgyzwIVH7Q3URI09yrGZ-p8iecUZxm4H9JavYt9NJaU9y43JEBoCtNEQAvD_BwE
東京メトロ東西線 落合駅 10階建 築9年,東京都中野区東中野５,10,1K,35.7084721,139.689223,https://suumo.jp/?vos=op0014adwstw099000000zzz_01xmsyt111-xe_aud-381243375587:kwd-13279118830:cr-552805620393:sl-:adg-30983744560:dev-c:acc-6530195222:cam-385940440&gclsrc=aw.ds&gad=1&gclid=CjwKCAjwkeqkBhAnEiwA5U-uM0kvzgyzwIVH7Q3URI09yrGZ-p8iecUZxm4H9JavYt9NJaU9y44JEBoCtNEQAvD_BwE
東京メトロ東西線 落合駅 10階建 築9年,東京都中野区東中野５,10,1K,35.7084721,139.689223,https://suumo.jp/?vos=op0014adwstw099000000zzz_01xmsyt111-xe_aud-381243375587:kwd-13279118830:cr-552805620393:sl-:adg-30983744560:dev-c:acc-6530195222:cam-385940440&gclsrc=aw.ds&gad=1&gclid=CjwKCAjwkeqkBhAnEiwA5U-uM0kvzgyzwIVH7Q3URI09yrGZ-p8iecUZxm4H9JavYt9NJaU9y45JEBoCtNEQAvD_BwE
東京メトロ東西線 落合駅 10階建 築9年,東京都中野区東中野５,10,1K,35.7084721,139.689223,https://suumo.jp/?vos=op0014adwstw099000000zzz_01xmsyt111-xe_aud-381243375587:kwd-13279118830:cr-552805620393:sl-:adg-30983744560:dev-c:acc-6530195222:cam-385940440&gclsrc=aw.ds&gad=1&gclid=CjwKCAjwkeqkBhAnEiwA5U-uM0kvzgyzwIVH7Q3URI09yrGZ-p8iecUZxm4H9JavYt9NJaU9y46JEBoCtNEQAvD_BwE
ノブレス・東中野,東京都中野区東中野３,9.2,ワンルーム,35.7076863,139.6815661,https://suumo.jp/?vos=op0014adwstw099000000zzz_01xmsyt111-xe_aud-381243375587:kwd-13279118830:cr-552805620393:sl-:adg-30983744560:dev-c:acc-6530195222:cam-385940440&gclsrc=aw.ds&gad=1&gclid=CjwKCAjwkeqkBhAnEiwA5U-uM0kvzgyzwIVH7Q3URI09yrGZ-p8iecUZxm4H9JavYt9NJaU9y47JEBoCtNEQAvD_BwE
ノブレス・東中野,東京都中野区東中野３,9.2,ワンルーム,35.7076863,139.6815661,https://suumo.jp/?vos=op0014adwstw099000000zzz_01xmsyt111-xe_aud-381243375587:kwd-13279118830:cr-552805620393:sl-:adg-30983744560:dev-c:acc-6530195222:cam-385940440&gclsrc=aw.ds&gad=1&gclid=CjwKCAjwkeqkBhAnEiwA5U-uM0kvzgyzwIVH7Q3URI09yrGZ-p8iecUZxm4H9JavYt9NJaU9y48JEBoCtNEQAvD_BwE
ノブレス・東中野,東京都中野区東中野３,10.9,1K,35.7076863,139.6815661,https://suumo.jp/?vos=op0014adwstw099000000zzz_01xmsyt111-xe_aud-381243375587:kwd-13279118830:cr-552805620393:sl-:adg-30983744560:dev-c:acc-6530195222:cam-385940440&gclsrc=aw.ds&gad=1&gclid=CjwKCAjwkeqkBhAnEiwA5U-uM0kvzgyzwIVH7Q3URI09yrGZ-p8iecUZxm4H9JavYt9NJaU9y49JEBoCtNEQAvD_BwE
ハーモニーテラス上高田,東京都中野区上高田１,6.55,ワンルーム,35.7102195,139.676462,https://suumo.jp/?vos=op0014adwstw099000000zzz_01xmsyt111-xe_aud-381243375587:kwd-13279118830:cr-552805620393:sl-:adg-30983744560:dev-c:acc-6530195222:cam-385940440&gclsrc=aw.ds&gad=1&gclid=CjwKCAjwkeqkBhAnEiwA5U-uM0kvzgyzwIVH7Q3URI09yrGZ-p8iecUZxm4H9JavYt9NJaU9y50JEBoCtNEQAvD_BwE
東京メトロ東西線 落合駅 3階建 築3年,東京都中野区上高田１,10,1K,35.7102195,139.676462,https://suumo.jp/?vos=op0014adwstw099000000zzz_01xmsyt111-xe_aud-381243375587:kwd-13279118830:cr-552805620393:sl-:adg-30983744560:dev-c:acc-6530195222:cam-385940440&gclsrc=aw.ds&gad=1&gclid=CjwKCAjwkeqkBhAnEiwA5U-uM0kvzgyzwIVH7Q3URI09yrGZ-p8iecUZxm4H9JavYt9NJaU9y51JEBoCtNEQAvD_BwE
東京メトロ東西線 落合駅 3階建 築3年,東京都中野区上高田１,10.2,1K,35.7102195,139.676462,https://suumo.jp/?vos=op0014adwstw099000000zzz_01xmsyt111-xe_aud-381243375587:kwd-13279118830:cr-552805620393:sl-:adg-30983744560:dev-c:acc-6530195222:cam-385940440&gclsrc=aw.ds&gad=1&gclid=CjwKCAjwkeqkBhAnEiwA5U-uM0kvzgyzwIVH7Q3URI09yrGZ-p8iecUZxm4H9JavYt9NJaU9y52JEBoCtNEQAvD_BwE
MAISON SHOWA(メゾンショーワ),東京都中野区上高田１,8,1K,35.7102195,139.676462,https://suumo.jp/?vos=op0014adwstw099000000zzz_01xmsyt111-xe_aud-381243375587:kwd-13279118830:cr-552805620393:sl-:adg-30983744560:dev-c:acc-6530195222:cam-385940440&gclsrc=aw.ds&gad=1&gclid=CjwKCAjwkeqkBhAnEiwA5U-uM0kvzgyzwIVH7Q3URI09yrGZ-p8iecUZxm4H9JavYt9NJaU9y53JEBoCtNEQAvD_BwE
東京メトロ東西線 落合駅 3階建 築54年,東京都中野区東中野４,8.7,2K,35.7092259,139.6853944,https://suumo.jp/?vos=op0014adwstw099000000zzz_01xmsyt111-xe_aud-381243375587:kwd-13279118830:cr-552805620393:sl-:adg-30983744560:dev-c:acc-6530195222:cam-385940440&gclsrc=aw.ds&gad=1&gclid=CjwKCAjwkeqkBhAnEiwA5U-uM0kvzgyzwIVH7Q3URI09yrGZ-p8iecUZxm4H9JavYt9NJaU9y54JEBoCtNEQAvD_BwE
東京メトロ東西線 落合駅 3階建 築54年,東京都中野区東中野４,9,2K,35.7092259,139.6853944,https://suumo.jp/?vos=op0014adwstw099000000zzz_01xmsyt111-xe_aud-381243375587:kwd-13279118830:cr-552805620393:sl-:adg-30983744560:dev-c:acc-6530195222:cam-385940440&gclsrc=aw.ds&gad=1&gclid=CjwKCAjwkeqkBhAnEiwA5U-uM0kvzgyzwIVH7Q3URI09yrGZ-p8iecUZxm4H9JavYt9NJaU9y55JEBoCtNEQAvD_BwE
東京メトロ東西線 落合駅 3階建 築40年,東京都中野区東中野３,13.5,1LDK,35.7076863,139.6815661,https://suumo.jp/?vos=op0014adwstw099000000zzz_01xmsyt111-xe_aud-381243375587:kwd-13279118830:cr-552805620393:sl-:adg-30983744560:dev-c:acc-6530195222:cam-385940440&gclsrc=aw.ds&gad=1&gclid=CjwKCAjwkeqkBhAnEiwA5U-uM0kvzgyzwIVH7Q3URI09yrGZ-p8iecUZxm4H9JavYt9NJaU9y56JEBoCtNEQAvD_BwE
ムサシハイム,東京都中野区上高田１,11.5,1LDK,35.7102195,139.676462,https://suumo.jp/?vos=op0014adwstw099000000zzz_01xmsyt111-xe_aud-381243375587:kwd-13279118830:cr-552805620393:sl-:adg-30983744560:dev-c:acc-6530195222:cam-385940440&gclsrc=aw.ds&gad=1&gclid=CjwKCAjwkeqkBhAnEiwA5U-uM0kvzgyzwIVH7Q3URI09yrGZ-p8iecUZxm4H9JavYt9NJaU9y57JEBoCtNEQAvD_BwE
レオパレス落合,東京都中野区東中野４,7.2,1K,35.7092259,139.6853944,https://suumo.jp/?vos=op0014adwstw099000000zzz_01xmsyt111-xe_aud-381243375587:kwd-13279118830:cr-552805620393:sl-:adg-30983744560:dev-c:acc-6530195222:cam-385940440&gclsrc=aw.ds&gad=1&gclid=CjwKCAjwkeqkBhAnEiwA5U-uM0kvzgyzwIVH7Q3URI09yrGZ-p8iecUZxm4H9JavYt9NJaU9y58JEBoCtNEQAvD_BwE
レオパレス落合,東京都中野区東中野４,7.3,1K,35.7092259,139.6853944,https://suumo.jp/?vos=op0014adwstw099000000zzz_01xmsyt111-xe_aud-381243375587:kwd-13279118830:cr-552805620393:sl-:adg-30983744560:dev-c:acc-6530195222:cam-385940440&gclsrc=aw.ds&gad=1&gclid=CjwKCAjwkeqkBhAnEiwA5U-uM0kvzgyzwIVH7Q3URI09yrGZ-p8iecUZxm4H9JavYt9NJaU9y59JEBoCtNEQAvD_BwE
東京メトロ東西線 落合駅 2階建 築34年,東京都中野区東中野４,7.2,1K,35.7092259,139.6853944,https://suumo.jp/?vos=op0014adwstw099000000zzz_01xmsyt111-xe_aud-381243375587:kwd-13279118830:cr-552805620393:sl-:adg-30983744560:dev-c:acc-6530195222:cam-385940440&gclsrc=aw.ds&gad=1&gclid=CjwKCAjwkeqkBhAnEiwA5U-uM0kvzgyzwIVH7Q3URI09yrGZ-p8iecUZxm4H9JavYt9NJaU9y60JEBoCtNEQAvD_BwE
東京メトロ東西線 落合駅 2階建 築34年,東京都中野区東中野４,7.3,1K,35.7092259,139.6853944,https://suumo.jp/?vos=op0014adwstw099000000zzz_01xmsyt111-xe_aud-381243375587:kwd-13279118830:cr-552805620393:sl-:adg-30983744560:dev-c:acc-6530195222:cam-385940440&gclsrc=aw.ds&gad=1&gclid=CjwKCAjwkeqkBhAnEiwA5U-uM0kvzgyzwIVH7Q3URI09yrGZ-p8iecUZxm4H9JavYt9NJaU9y61JEBoCtNEQAvD_BwE
東京メトロ東西線 落合駅 3階建 新築,東京都中野区東中野５,11.8,1LDK,35.7084721,139.689223,https://suumo.jp/?vos=op0014adwstw099000000zzz_01xmsyt111-xe_aud-381243375587:kwd-13279118830:cr-552805620393:sl-:adg-30983744560:dev-c:acc-6530195222:cam-385940440&gclsrc=aw.ds&gad=1&gclid=CjwKCAjwkeqkBhAnEiwA5U-uM0kvzgyzwIVH7Q3URI09yrGZ-p8iecUZxm4H9JavYt9NJaU9y62JEBoCtNEQAvD_BwE
ＬＫ東中野マンション,東京都中野区東中野４,16,2LDK,35.7092259,139.6853944,https://suumo.jp/?vos=op0014adwstw099000000zzz_01xmsyt111-xe_aud-381243375587:kwd-13279118830:cr-552805620393:sl-:adg-30983744560:dev-c:acc-6530195222:cam-385940440&gclsrc=aw.ds&gad=1&gclid=CjwKCAjwkeqkBhAnEiwA5U-uM0kvzgyzwIVH7Q3URI09yrGZ-p8iecUZxm4H9JavYt9NJaU9y63JEBoCtNEQAvD_BwE
レガリア東中野レジデンスWEST,東京都中野区東中野５,9.7,ワンルーム,35.7084721,139.689223,https://suumo.jp/?vos=op0014adwstw099000000zzz_01xmsyt111-xe_aud-381243375587:kwd-13279118830:cr-552805620393:sl-:adg-30983744560:dev-c:acc-6530195222:cam-385940440&gclsrc=aw.ds&gad=1&gclid=CjwKCAjwkeqkBhAnEiwA5U-uM0kvzgyzwIVH7Q3URI09yrGZ-p8iecUZxm4H9JavYt9NJaU9y64JEBoCtNEQAvD_BwE
レガリア東中野レジデンスWEST,東京都中野区東中野５,9.7,ワンルーム,35.7084721,139.689223,https://suumo.jp/?vos=op0014adwstw099000000zzz_01xmsyt111-xe_aud-381243375587:kwd-13279118830:cr-552805620393:sl-:adg-30983744560:dev-c:acc-6530195222:cam-385940440&gclsrc=aw.ds&gad=1&gclid=CjwKCAjwkeqkBhAnEiwA5U-uM0kvzgyzwIVH7Q3URI09yrGZ-p8iecUZxm4H9JavYt9NJaU9y65JEBoCtNEQAvD_BwE
レガリア東中野レジデンスWEST,東京都中野区東中野５,14.4,1LDK,35.7084721,139.689223,https://suumo.jp/?vos=op0014adwstw099000000zzz_01xmsyt111-xe_aud-381243375587:kwd-13279118830:cr-552805620393:sl-:adg-30983744560:dev-c:acc-6530195222:cam-385940440&gclsrc=aw.ds&gad=1&gclid=CjwKCAjwkeqkBhAnEiwA5U-uM0kvzgyzwIVH7Q3URI09yrGZ-p8iecUZxm4H9JavYt9NJaU9y66JEBoCtNEQAvD_BwE
東京メトロ東西線 落合駅 4階建 築16年,東京都中野区東中野５,9.7,ワンルーム,35.7084721,139.689223,https://suumo.jp/?vos=op0014adwstw099000000zzz_01xmsyt111-xe_aud-381243375587:kwd-13279118830:cr-552805620393:sl-:adg-30983744560:dev-c:acc-6530195222:cam-385940440&gclsrc=aw.ds&gad=1&gclid=CjwKCAjwkeqkBhAnEiwA5U-uM0kvzgyzwIVH7Q3URI09yrGZ-p8iecUZxm4H9JavYt9NJaU9y67JEBoCtNEQAvD_BwE
東京メトロ東西線 落合駅 4階建 築16年,東京都中野区東中野５,14.4,1LDK,35.7084721,139.689223,https://suumo.jp/?vos=op0014adwstw099000000zzz_01xmsyt111-xe_aud-381243375587:kwd-13279118830:cr-552805620393:sl-:adg-30983744560:dev-c:acc-6530195222:cam-385940440&gclsrc=aw.ds&gad=1&gclid=CjwKCAjwkeqkBhAnEiwA5U-uM0kvzgyzwIVH7Q3URI09yrGZ-p8iecUZxm4H9JavYt9NJaU9y68JEBoCtNEQAvD_BwE
東京メトロ東西線 落合駅 10階建 築9年,東京都中野区東中野５,16.3,1LDK,35.7084721,139.689223,https://suumo.jp/?vos=op0014adwstw099000000zzz_01xmsyt111-xe_aud-381243375587:kwd-13279118830:cr-552805620393:sl-:adg-30983744560:dev-c:acc-6530195222:cam-385940440&gclsrc=aw.ds&gad=1&gclid=CjwKCAjwkeqkBhAnEiwA5U-uM0kvzgyzwIVH7Q3URI09yrGZ-p8iecUZxm4H9JavYt9NJaU9y69JEBoCtNEQAvD_BwE
レガリア東中野レジデンスEAST,東京都中野区東中野５,8.8,ワンルーム,35.7084721,139.689223,https://suumo.jp/?vos=op0014adwstw099000000zzz_01xmsyt111-xe_aud-381243375587:kwd-13279118830:cr-552805620393:sl-:adg-30983744560:dev-c:acc-6530195222:cam-385940440&gclsrc=aw.ds&gad=1&gclid=CjwKCAjwkeqkBhAnEiwA5U-uM0kvzgyzwIVH7Q3URI09yrGZ-p8iecUZxm4H9JavYt9NJaU9y70JEBoCtNEQAvD_BwE
レガリア東中野レジデンスEAST,東京都中野区東中野５,16.3,1LDK,35.7084721,139.689223,https://suumo.jp/?vos=op0014adwstw099000000zzz_01xmsyt111-xe_aud-381243375587:kwd-13279118830:cr-552805620393:sl-:adg-30983744560:dev-c:acc-6530195222:cam-385940440&gclsrc=aw.ds&gad=1&gclid=CjwKCAjwkeqkBhAnEiwA5U-uM0kvzgyzwIVH7Q3URI09yrGZ-p8iecUZxm4H9JavYt9NJaU9y71JEBoCtNEQAvD_BwE
東京メトロ東西線 落合駅 4階建 築16年,東京都中野区東中野５,8.8,ワンルーム,35.7084721,139.689223,https://suumo.jp/?vos=op0014adwstw099000000zzz_01xmsyt111-xe_aud-381243375587:kwd-13279118830:cr-552805620393:sl-:adg-30983744560:dev-c:acc-6530195222:cam-385940440&gclsrc=aw.ds&gad=1&gclid=CjwKCAjwkeqkBhAnEiwA5U-uM0kvzgyzwIVH7Q3URI09yrGZ-p8iecUZxm4H9JavYt9NJaU9y72JEBoCtNEQAvD_BwE
東京メトロ東西線 落合駅 4階建 築16年,東京都中野区東中野５,16.3,1LDK,35.7084721,139.689223,https://suumo.jp/?vos=op0014adwstw099000000zzz_01xmsyt111-xe_aud-381243375587:kwd-13279118830:cr-552805620393:sl-:adg-30983744560:dev-c:acc-6530195222:cam-385940440&gclsrc=aw.ds&gad=1&gclid=CjwKCAjwkeqkBhAnEiwA5U-uM0kvzgyzwIVH7Q3URI09yrGZ-p8iecUZxm4H9JavYt9NJaU9y73JEBoCtNEQAvD_BwE
レガリア東中野レジデンスイースト,東京都中野区東中野５,16.3,1LDK,35.7084721,139.689223,https://suumo.jp/?vos=op0014adwstw099000000zzz_01xmsyt111-xe_aud-381243375587:kwd-13279118830:cr-552805620393:sl-:adg-30983744560:dev-c:acc-6530195222:cam-385940440&gclsrc=aw.ds&gad=1&gclid=CjwKCAjwkeqkBhAnEiwA5U-uM0kvzgyzwIVH7Q3URI09yrGZ-p8iecUZxm4H9JavYt9NJaU9y74JEBoCtNEQAvD_BwE
ラ・テラス落合,東京都中野区東中野４,10.6,1K,35.7092259,139.6853944,https://suumo.jp/?vos=op0014adwstw099000000zzz_01xmsyt111-xe_aud-381243375587:kwd-13279118830:cr-552805620393:sl-:adg-30983744560:dev-c:acc-6530195222:cam-385940440&gclsrc=aw.ds&gad=1&gclid=CjwKCAjwkeqkBhAnEiwA5U-uM0kvzgyzwIVH7Q3URI09yrGZ-p8iecUZxm4H9JavYt9NJaU9y75JEBoCtNEQAvD_BwE
ラ・テラス落合,東京都中野区東中野４,13.3,1LDK,35.7092259,139.6853944,https://suumo.jp/?vos=op0014adwstw099000000zzz_01xmsyt111-xe_aud-381243375587:kwd-13279118830:cr-552805620393:sl-:adg-30983744560:dev-c:acc-6530195222:cam-385940440&gclsrc=aw.ds&gad=1&gclid=CjwKCAjwkeqkBhAnEiwA5U-uM0kvzgyzwIVH7Q3URI09yrGZ-p8iecUZxm4H9JavYt9NJaU9y76JEBoCtNEQAvD_BwE
プレジール中嶋,東京都中野区上高田１,9,1LDK,35.7102195,139.676462,https://suumo.jp/?vos=op0014adwstw099000000zzz_01xmsyt111-xe_aud-381243375587:kwd-13279118830:cr-552805620393:sl-:adg-30983744560:dev-c:acc-6530195222:cam-385940440&gclsrc=aw.ds&gad=1&gclid=CjwKCAjwkeqkBhAnEiwA5U-uM0kvzgyzwIVH7Q3URI09yrGZ-p8iecUZxm4H9JavYt9NJaU9y77JEBoCtNEQAvD_BwE
プレジール中嶋,東京都中野区上高田１,9,1LDK,35.7102195,139.676462,https://suumo.jp/?vos=op0014adwstw099000000zzz_01xmsyt111-xe_aud-381243375587:kwd-13279118830:cr-552805620393:sl-:adg-30983744560:dev-c:acc-6530195222:cam-385940440&gclsrc=aw.ds&gad=1&gclid=CjwKCAjwkeqkBhAnEiwA5U-uM0kvzgyzwIVH7Q3URI09yrGZ-p8iecUZxm4H9JavYt9NJaU9y78JEBoCtNEQAvD_BwE
アーバイル落合ツインドレスレジスタ,東京都中野区上高田４,14.8,2DK,35.7141723,139.677738,https://suumo.jp/?vos=op0014adwstw099000000zzz_01xmsyt111-xe_aud-381243375587:kwd-13279118830:cr-552805620393:sl-:adg-30983744560:dev-c:acc-6530195222:cam-385940440&gclsrc=aw.ds&gad=1&gclid=CjwKCAjwkeqkBhAnEiwA5U-uM0kvzgyzwIVH7Q3URI09yrGZ-p8iecUZxm4H9JavYt9NJaU9y79JEBoCtNEQAvD_BwE
ＡｓｐｅｎII,東京都中野区東中野４,8.6,1K,35.7092259,139.6853944,https://suumo.jp/?vos=op0014adwstw099000000zzz_01xmsyt111-xe_aud-381243375587:kwd-13279118830:cr-552805620393:sl-:adg-30983744560:dev-c:acc-6530195222:cam-385940440&gclsrc=aw.ds&gad=1&gclid=CjwKCAjwkeqkBhAnEiwA5U-uM0kvzgyzwIVH7Q3URI09yrGZ-p8iecUZxm4H9JavYt9NJaU9y80JEBoCtNEQAvD_BwE
ＡｓｐｅｎII,東京都中野区東中野４,8.9,1K,35.7092259,139.6853944,https://suumo.jp/?vos=op0014adwstw099000000zzz_01xmsyt111-xe_aud-381243375587:kwd-13279118830:cr-552805620393:sl-:adg-30983744560:dev-c:acc-6530195222:cam-385940440&gclsrc=aw.ds&gad=1&gclid=CjwKCAjwkeqkBhAnEiwA5U-uM0kvzgyzwIVH7Q3URI09yrGZ-p8iecUZxm4H9JavYt9NJaU9y81JEBoCtNEQAvD_BwE
ＳＰＩＣＡ,東京都中野区上高田４,10.5,2LDK,35.7141723,139.677738,https://suumo.jp/?vos=op0014adwstw099000000zzz_01xmsyt111-xe_aud-381243375587:kwd-13279118830:cr-552805620393:sl-:adg-30983744560:dev-c:acc-6530195222:cam-385940440&gclsrc=aw.ds&gad=1&gclid=CjwKCAjwkeqkBhAnEiwA5U-uM0kvzgyzwIVH7Q3URI09yrGZ-p8iecUZxm4H9JavYt9NJaU9y82JEBoCtNEQAvD_BwE
ＳＰＩＣＡ,東京都中野区上高田４,11,2LDK,35.7141723,139.677738,https://suumo.jp/?vos=op0014adwstw099000000zzz_01xmsyt111-xe_aud-381243375587:kwd-13279118830:cr-552805620393:sl-:adg-30983744560:dev-c:acc-6530195222:cam-385940440&gclsrc=aw.ds&gad=1&gclid=CjwKCAjwkeqkBhAnEiwA5U-uM0kvzgyzwIVH7Q3URI09yrGZ-p8iecUZxm4H9JavYt9NJaU9y83JEBoCtNEQAvD_BwE
ＳＰＩＣＡ,東京都中野区上高田４,11,2LDK,35.7141723,139.677738,https://suumo.jp/?vos=op0014adwstw099000000zzz_01xmsyt111-xe_aud-381243375587:kwd-13279118830:cr-552805620393:sl-:adg-30983744560:dev-c:acc-6530195222:cam-385940440&gclsrc=aw.ds&gad=1&gclid=CjwKCAjwkeqkBhAnEiwA5U-uM0kvzgyzwIVH7Q3URI09yrGZ-p8iecUZxm4H9JavYt9NJaU9y84JEBoCtNEQAvD_BwE
ＳＰＩＣＡ,東京都中野区上高田４,11.5,2LDK,35.7141723,139.677738,https://suumo.jp/?vos=op0014adwstw099000000zzz_01xmsyt111-xe_aud-381243375587:kwd-13279118830:cr-552805620393:sl-:adg-30983744560:dev-c:acc-6530195222:cam-385940440&gclsrc=aw.ds&gad=1&gclid=CjwKCAjwkeqkBhAnEiwA5U-uM0kvzgyzwIVH7Q3URI09yrGZ-p8iecUZxm4H9JavYt9NJaU9y85JEBoCtNEQAvD_BwE
ＳＰＩＣＡ,東京都中野区上高田４,11.5,2LDK,35.7141723,139.677738,https://suumo.jp/?vos=op0014adwstw099000000zzz_01xmsyt111-xe_aud-381243375587:kwd-13279118830:cr-552805620393:sl-:adg-30983744560:dev-c:acc-6530195222:cam-385940440&gclsrc=aw.ds&gad=1&gclid=CjwKCAjwkeqkBhAnEiwA5U-uM0kvzgyzwIVH7Q3URI09yrGZ-p8iecUZxm4H9JavYt9NJaU9y86JEBoCtNEQAvD_BwE
東京メトロ東西線 落合駅 5階建 築26年,東京都中野区上高田１,16,3DK,35.7102195,139.676462,https://suumo.jp/?vos=op0014adwstw099000000zzz_01xmsyt111-xe_aud-381243375587:kwd-13279118830:cr-552805620393:sl-:adg-30983744560:dev-c:acc-6530195222:cam-385940440&gclsrc=aw.ds&gad=1&gclid=CjwKCAjwkeqkBhAnEiwA5U-uM0kvzgyzwIVH7Q3URI09yrGZ-p8iecUZxm4H9JavYt9NJaU9y87JEBoCtNEQAvD_BwE
サンフラワー,東京都中野区上高田１,16,3DK,35.7102195,139.676462,https://suumo.jp/?vos=op0014adwstw099000000zzz_01xmsyt111-xe_aud-381243375587:kwd-13279118830:cr-552805620393:sl-:adg-30983744560:dev-c:acc-6530195222:cam-385940440&gclsrc=aw.ds&gad=1&gclid=CjwKCAjwkeqkBhAnEiwA5U-uM0kvzgyzwIVH7Q3URI09yrGZ-p8iecUZxm4H9JavYt9NJaU9y88JEBoCtNEQAvD_BwE
関東小滝橋第3マンション,東京都中野区東中野５,7,1DK,35.7084721,139.689223,https://suumo.jp/?vos=op0014adwstw099000000zzz_01xmsyt111-xe_aud-381243375587:kwd-13279118830:cr-552805620393:sl-:adg-30983744560:dev-c:acc-6530195222:cam-385940440&gclsrc=aw.ds&gad=1&gclid=CjwKCAjwkeqkBhAnEiwA5U-uM0kvzgyzwIVH7Q3URI09yrGZ-p8iecUZxm4H9JavYt9NJaU9y89JEBoCtNEQAvD_BwE
関東小滝橋第3マンション,東京都中野区東中野５,7.2,1DK,35.7084721,139.689223,https://suumo.jp/?vos=op0014adwstw099000000zzz_01xmsyt111-xe_aud-381243375587:kwd-13279118830:cr-552805620393:sl-:adg-30983744560:dev-c:acc-6530195222:cam-385940440&gclsrc=aw.ds&gad=1&gclid=CjwKCAjwkeqkBhAnEiwA5U-uM0kvzgyzwIVH7Q3URI09yrGZ-p8iecUZxm4H9JavYt9NJaU9y90JEBoCtNEQAvD_BwE
関東小滝橋第3マンション,東京都中野区東中野５,7.3,1DK,35.7084721,139.689223,https://suumo.jp/?vos=op0014adwstw099000000zzz_01xmsyt111-xe_aud-381243375587:kwd-13279118830:cr-552805620393:sl-:adg-30983744560:dev-c:acc-6530195222:cam-385940440&gclsrc=aw.ds&gad=1&gclid=CjwKCAjwkeqkBhAnEiwA5U-uM0kvzgyzwIVH7Q3URI09yrGZ-p8iecUZxm4H9JavYt9NJaU9y91JEBoCtNEQAvD_BwE
関東小滝橋第3マンション,東京都中野区東中野５,11.7,3DK,35.7084721,139.689223,https://suumo.jp/?vos=op0014adwstw099000000zzz_01xmsyt111-xe_aud-381243375587:kwd-13279118830:cr-552805620393:sl-:adg-30983744560:dev-c:acc-6530195222:cam-385940440&gclsrc=aw.ds&gad=1&gclid=CjwKCAjwkeqkBhAnEiwA5U-uM0kvzgyzwIVH7Q3URI09yrGZ-p8iecUZxm4H9JavYt9NJaU9y92JEBoCtNEQAvD_BwE
エンゼルハイム東中野,東京都中野区東中野５,12.5,2DK,35.7084721,139.689223,https://suumo.jp/?vos=op0014adwstw099000000zzz_01xmsyt111-xe_aud-381243375587:kwd-13279118830:cr-552805620393:sl-:adg-30983744560:dev-c:acc-6530195222:cam-385940440&gclsrc=aw.ds&gad=1&gclid=CjwKCAjwkeqkBhAnEiwA5U-uM0kvzgyzwIVH7Q3URI09yrGZ-p8iecUZxm4H9JavYt9NJaU9y93JEBoCtNEQAvD_BwE
東京メトロ東西線 落合駅 3階建 築31年,東京都中野区東中野５,12.5,2DK,35.7084721,139.689223,https://suumo.jp/?vos=op0014adwstw099000000zzz_01xmsyt111-xe_aud-381243375587:kwd-13279118830:cr-552805620393:sl-:adg-30983744560:dev-c:acc-6530195222:cam-385940440&gclsrc=aw.ds&gad=1&gclid=CjwKCAjwkeqkBhAnEiwA5U-uM0kvzgyzwIVH7Q3URI09yrGZ-p8iecUZxm4H9JavYt9NJaU9y94JEBoCtNEQAvD_BwE
東京メトロ東西線 落合駅 5階建 築56年,東京都中野区上高田４,10.5,2LDK,35.7141723,139.677738,https://suumo.jp/?vos=op0014adwstw099000000zzz_01xmsyt111-xe_aud-381243375587:kwd-13279118830:cr-552805620393:sl-:adg-30983744560:dev-c:acc-6530195222:cam-385940440&gclsrc=aw.ds&gad=1&gclid=CjwKCAjwkeqkBhAnEiwA5U-uM0kvzgyzwIVH7Q3URI09yrGZ-p8iecUZxm4H9JavYt9NJaU9y95JEBoCtNEQAvD_BwE
東京メトロ東西線 落合駅 5階建 築56年,東京都中野区上高田４,11.5,2LDK,35.7141723,139.677738,https://suumo.jp/?vos=op0014adwstw099000000zzz_01xmsyt111-xe_aud-381243375587:kwd-13279118830:cr-552805620393:sl-:adg-30983744560:dev-c:acc-6530195222:cam-385940440&gclsrc=aw.ds&gad=1&gclid=CjwKCAjwkeqkBhAnEiwA5U-uM0kvzgyzwIVH7Q3URI09yrGZ-p8iecUZxm4H9JavYt9NJaU9y96JEBoCtNEQAvD_BwE
東京メトロ東西線 落合駅 2階建 築20年,東京都中野区上高田１,8,1K,35.7102195,139.676462,https://suumo.jp/?vos=op0014adwstw099000000zzz_01xmsyt111-xe_aud-381243375587:kwd-13279118830:cr-552805620393:sl-:adg-30983744560:dev-c:acc-6530195222:cam-385940440&gclsrc=aw.ds&gad=1&gclid=CjwKCAjwkeqkBhAnEiwA5U-uM0kvzgyzwIVH7Q3URI09yrGZ-p8iecUZxm4H9JavYt9NJaU9y97JEBoCtNEQAvD_BwE
パークアクシス落合東中野,東京都中野区東中野３,11.1,1DK,35.7076863,139.6815661,https://suumo.jp/?vos=op0014adwstw099000000zzz_01xmsyt111-xe_aud-381243375587:kwd-13279118830:cr-552805620393:sl-:adg-30983744560:dev-c:acc-6530195222:cam-385940440&gclsrc=aw.ds&gad=1&gclid=CjwKCAjwkeqkBhAnEiwA5U-uM0kvzgyzwIVH7Q3URI09yrGZ-p8iecUZxm4H9JavYt9NJaU9y98JEBoCtNEQAvD_BwE
パークアクシス落合東中野,東京都中野区東中野３,11.5,1DK,35.7076863,139.6815661,https://suumo.jp/?vos=op0014adwstw099000000zzz_01xmsyt111-xe_aud-381243375587:kwd-13279118830:cr-552805620393:sl-:adg-30983744560:dev-c:acc-6530195222:cam-385940440&gclsrc=aw.ds&gad=1&gclid=CjwKCAjwkeqkBhAnEiwA5U-uM0kvzgyzwIVH7Q3URI09yrGZ-p8iecUZxm4H9JavYt9NJaU9y99JEBoCtNEQAvD_BwE
パークアクシス落合東中野,東京都中野区東中野３,11.6,1DK,35.7076863,139.6815661,https://suumo.jp/?vos=op0014adwstw099000000zzz_01xmsyt111-xe_aud-381243375587:kwd-13279118830:cr-552805620393:sl-:adg-30983744560:dev-c:acc-6530195222:cam-385940440&gclsrc=aw.ds&gad=1&gclid=CjwKCAjwkeqkBhAnEiwA5U-uM0kvzgyzwIVH7Q3URI09yrGZ-p8iecUZxm4H9JavYt9NJaU9y100JEBoCtNEQAvD_BwE
メゾン・ド・ファン,東京都中野区東中野４,7.5,1K,35.7092259,139.6853944,https://suumo.jp/?vos=op0014adwstw099000000zzz_01xmsyt111-xe_aud-381243375587:kwd-13279118830:cr-552805620393:sl-:adg-30983744560:dev-c:acc-6530195222:cam-385940440&gclsrc=aw.ds&gad=1&gclid=CjwKCAjwkeqkBhAnEiwA5U-uM0kvzgyzwIVH7Q3URI09yrGZ-p8iecUZxm4H9JavYt9NJaU9y101JEBoCtNEQAvD_BwE
東京メトロ東西線 落合駅 2階建 築19年,東京都中野区東中野４,7.5,1K,35.7092259,139.6853944,https://suumo.jp/?vos=op0014adwstw099000000zzz_01xmsyt111-xe_aud-381243375587:kwd-13279118830:cr-552805620393:sl-:adg-30983744560:dev-c:acc-6530195222:cam-385940440&gclsrc=aw.ds&gad=1&gclid=CjwKCAjwkeqkBhAnEiwA5U-uM0kvzgyzwIVH7Q3URI09yrGZ-p8iecUZxm4H9JavYt9NJaU9y102JEBoCtNEQAvD_BwE
山頂マンションＢ,東京都中野区東中野５,7,1DK,35.7084721,139.689223,https://suumo.jp/?vos=op0014adwstw099000000zzz_01xmsyt111-xe_aud-381243375587:kwd-13279118830:cr-552805620393:sl-:adg-30983744560:dev-c:acc-6530195222:cam-385940440&gclsrc=aw.ds&gad=1&gclid=CjwKCAjwkeqkBhAnEiwA5U-uM0kvzgyzwIVH7Q3URI09yrGZ-p8iecUZxm4H9JavYt9NJaU9y103JEBoCtNEQAvD_BwE
アーバンプレイス高田馬場＆U,東京都中野区東中野５,5.5,ワンルーム,35.7084721,139.689223,https://suumo.jp/?vos=op0014adwstw099000000zzz_01xmsyt111-xe_aud-381243375587:kwd-13279118830:cr-552805620393:sl-:adg-30983744560:dev-c:acc-6530195222:cam-385940440&gclsrc=aw.ds&gad=1&gclid=CjwKCAjwkeqkBhAnEiwA5U-uM0kvzgyzwIVH7Q3URI09yrGZ-p8iecUZxm4H9JavYt9NJaU9y104JEBoCtNEQAvD_BwE
コーポアイ,東京都中野区上高田１,6.2,1DK,35.7102195,139.676462,https://suumo.jp/?vos=op0014adwstw099000000zzz_01xmsyt111-xe_aud-381243375587:kwd-13279118830:cr-552805620393:sl-:adg-30983744560:dev-c:acc-6530195222:cam-385940440&gclsrc=aw.ds&gad=1&gclid=CjwKCAjwkeqkBhAnEiwA5U-uM0kvzgyzwIVH7Q3URI09yrGZ-p8iecUZxm4H9JavYt9NJaU9y105JEBoCtNEQAvD_BwE
グランリュクス,東京都中野区東中野５,6.45,ワンルーム,35.7084721,139.689223,https://suumo.jp/?vos=op0014adwstw099000000zzz_01xmsyt111-xe_aud-381243375587:kwd-13279118830:cr-552805620393:sl-:adg-30983744560:dev-c:acc-6530195222:cam-385940440&gclsrc=aw.ds&gad=1&gclid=CjwKCAjwkeqkBhAnEiwA5U-uM0kvzgyzwIVH7Q3URI09yrGZ-p8iecUZxm4H9JavYt9NJaU9y106JEBoCtNEQAvD_BwE
グランリュクス,東京都中野区東中野５,6.75,ワンルーム,35.7084721,139.689223,https://suumo.jp/?vos=op0014adwstw099000000zzz_01xmsyt111-xe_aud-381243375587:kwd-13279118830:cr-552805620393:sl-:adg-30983744560:dev-c:acc-6530195222:cam-385940440&gclsrc=aw.ds&gad=1&gclid=CjwKCAjwkeqkBhAnEiwA5U-uM0kvzgyzwIVH7Q3URI09yrGZ-p8iecUZxm4H9JavYt9NJaU9y107JEBoCtNEQAvD_BwE
アーバンプレイス高田馬場X,東京都中野区東中野５,5.3,ワンルーム,35.7084721,139.689223,https://suumo.jp/?vos=op0014adwstw099000000zzz_01xmsyt111-xe_aud-381243375587:kwd-13279118830:cr-552805620393:sl-:adg-30983744560:dev-c:acc-6530195222:cam-385940440&gclsrc=aw.ds&gad=1&gclid=CjwKCAjwkeqkBhAnEiwA5U-uM0kvzgyzwIVH7Q3URI09yrGZ-p8iecUZxm4H9JavYt9NJaU9y108JEBoCtNEQAvD_BwE
ＧＲＡＤＯ落合,東京都中野区上高田４,6,1K,35.7141723,139.677738,https://suumo.jp/?vos=op0014adwstw099000000zzz_01xmsyt111-xe_aud-381243375587:kwd-13279118830:cr-552805620393:sl-:adg-30983744560:dev-c:acc-6530195222:cam-385940440&gclsrc=aw.ds&gad=1&gclid=CjwKCAjwkeqkBhAnEiwA5U-uM0kvzgyzwIVH7Q3URI09yrGZ-p8iecUZxm4H9JavYt9NJaU9y109JEBoCtNEQAvD_BwE
エクセレント東中野,東京都中野区東中野３,13.5,1LDK,35.7076863,139.6815661,https://suumo.jp/?vos=op0014adwstw099000000zzz_01xmsyt111-xe_aud-381243375587:kwd-13279118830:cr-552805620393:sl-:adg-30983744560:dev-c:acc-6530195222:cam-385940440&gclsrc=aw.ds&gad=1&gclid=CjwKCAjwkeqkBhAnEiwA5U-uM0kvzgyzwIVH7Q3URI09yrGZ-p8iecUZxm4H9JavYt9NJaU9y110JEBoCtNEQAvD_BwE
東京メトロ東西線 落合駅 3階建 築54年,東京都中野区上高田１,11.5,1LDK,35.7102195,139.676462,https://suumo.jp/?vos=op0014adwstw099000000zzz_01xmsyt111-xe_aud-381243375587:kwd-13279118830:cr-552805620393:sl-:adg-30983744560:dev-c:acc-6530195222:cam-385940440&gclsrc=aw.ds&gad=1&gclid=CjwKCAjwkeqkBhAnEiwA5U-uM0kvzgyzwIVH7Q3URI09yrGZ-p8iecUZxm4H9JavYt9NJaU9y111JEBoCtNEQAvD_BwE
城様邸,東京都中野区上高田１,30,4LDK,35.7102195,139.676462,https://suumo.jp/?vos=op0014adwstw099000000zzz_01xmsyt111-xe_aud-381243375587:kwd-13279118830:cr-552805620393:sl-:adg-30983744560:dev-c:acc-6530195222:cam-385940440&gclsrc=aw.ds&gad=1&gclid=CjwKCAjwkeqkBhAnEiwA5U-uM0kvzgyzwIVH7Q3URI09yrGZ-p8iecUZxm4H9JavYt9NJaU9y112JEBoCtNEQAvD_BwE
プチパレス92,東京都中野区東中野４,6.5,1K,35.7092259,139.6853944,https://suumo.jp/?vos=op0014adwstw099000000zzz_01xmsyt111-xe_aud-381243375587:kwd-13279118830:cr-552805620393:sl-:adg-30983744560:dev-c:acc-6530195222:cam-385940440&gclsrc=aw.ds&gad=1&gclid=CjwKCAjwkeqkBhAnEiwA5U-uM0kvzgyzwIVH7Q3URI09yrGZ-p8iecUZxm4H9JavYt9NJaU9y113JEBoCtNEQAvD_BwE
メゾン清田,東京都中野区東中野４,9,2K,35.7092259,139.6853944,https://suumo.jp/?vos=op0014adwstw099000000zzz_01xmsyt111-xe_aud-381243375587:kwd-13279118830:cr-552805620393:sl-:adg-30983744560:dev-c:acc-6530195222:cam-385940440&gclsrc=aw.ds&gad=1&gclid=CjwKCAjwkeqkBhAnEiwA5U-uM0kvzgyzwIVH7Q3URI09yrGZ-p8iecUZxm4H9JavYt9NJaU9y114JEBoCtNEQAvD_BwE
コーポ偕和１,東京都中野区東中野３,6.2,ワンルーム,35.7076863,139.6815661,https://suumo.jp/?vos=op0014adwstw099000000zzz_01xmsyt111-xe_aud-381243375587:kwd-13279118830:cr-552805620393:sl-:adg-30983744560:dev-c:acc-6530195222:cam-385940440&gclsrc=aw.ds&gad=1&gclid=CjwKCAjwkeqkBhAnEiwA5U-uM0kvzgyzwIVH7Q3URI09yrGZ-p8iecUZxm4H9JavYt9NJaU9y115JEBoCtNEQAvD_BwE
グレ−スハイツ,東京都中野区東中野４,7.8,ワンルーム,35.7092259,139.6853944,https://suumo.jp/?vos=op0014adwstw099000000zzz_01xmsyt111-xe_aud-381243375587:kwd-13279118830:cr-552805620393:sl-:adg-30983744560:dev-c:acc-6530195222:cam-385940440&gclsrc=aw.ds&gad=1&gclid=CjwKCAjwkeqkBhAnEiwA5U-uM0kvzgyzwIVH7Q3URI09yrGZ-p8iecUZxm4H9JavYt9NJaU9y116JEBoCtNEQAvD_BwE
マートルコート東中野,東京都中野区東中野５,6,ワンルーム,35.7084721,139.689223,https://suumo.jp/?vos=op0014adwstw099000000zzz_01xmsyt111-xe_aud-381243375587:kwd-13279118830:cr-552805620393:sl-:adg-30983744560:dev-c:acc-6530195222:cam-385940440&gclsrc=aw.ds&gad=1&gclid=CjwKCAjwkeqkBhAnEiwA5U-uM0kvzgyzwIVH7Q3URI09yrGZ-p8iecUZxm4H9JavYt9NJaU9y117JEBoCtNEQAvD_BwE
マートルコート東中野,東京都中野区東中野５,6,1K,35.7084721,139.689223,https://suumo.jp/?vos=op0014adwstw099000000zzz_01xmsyt111-xe_aud-381243375587:kwd-13279118830:cr-552805620393:sl-:adg-30983744560:dev-c:acc-6530195222:cam-385940440&gclsrc=aw.ds&gad=1&gclid=CjwKCAjwkeqkBhAnEiwA5U-uM0kvzgyzwIVH7Q3URI09yrGZ-p8iecUZxm4H9JavYt9NJaU9y118JEBoCtNEQAvD_BwE
マートルコート東中野,東京都中野区東中野５,6.1,ワンルーム,35.7084721,139.689223,https://suumo.jp/?vos=op0014adwstw099000000zzz_01xmsyt111-xe_aud-381243375587:kwd-13279118830:cr-552805620393:sl-:adg-30983744560:dev-c:acc-6530195222:cam-385940440&gclsrc=aw.ds&gad=1&gclid=CjwKCAjwkeqkBhAnEiwA5U-uM0kvzgyzwIVH7Q3URI09yrGZ-p8iecUZxm4H9JavYt9NJaU9y119JEBoCtNEQAvD_BwE
マートルコート東中野,東京都中野区東中野５,6.4,ワンルーム,35.7084721,139.689223,https://suumo.jp/?vos=op0014adwstw099000000zzz_01xmsyt111-xe_aud-381243375587:kwd-13279118830:cr-552805620393:sl-:adg-30983744560:dev-c:acc-6530195222:cam-385940440&gclsrc=aw.ds&gad=1&gclid=CjwKCAjwkeqkBhAnEiwA5U-uM0kvzgyzwIVH7Q3URI09yrGZ-p8iecUZxm4H9JavYt9NJaU9y120JEBoCtNEQAvD_BwE
東京メトロ東西線 落合駅 8階建 築37年,東京都中野区東中野５,6.4,ワンルーム,35.7084721,139.689223,https://suumo.jp/?vos=op0014adwstw099000000zzz_01xmsyt111-xe_aud-381243375587:kwd-13279118830:cr-552805620393:sl-:adg-30983744560:dev-c:acc-6530195222:cam-385940440&gclsrc=aw.ds&gad=1&gclid=CjwKCAjwkeqkBhAnEiwA5U-uM0kvzgyzwIVH7Q3URI09yrGZ-p8iecUZxm4H9JavYt9NJaU9y121JEBoCtNEQAvD_BwE
杉浦コ−ポ,東京都中野区東中野３,5.9,ワンルーム,35.7076863,139.6815661,https://suumo.jp/?vos=op0014adwstw099000000zzz_01xmsyt111-xe_aud-381243375587:kwd-13279118830:cr-552805620393:sl-:adg-30983744560:dev-c:acc-6530195222:cam-385940440&gclsrc=aw.ds&gad=1&gclid=CjwKCAjwkeqkBhAnEiwA5U-uM0kvzgyzwIVH7Q3URI09yrGZ-p8iecUZxm4H9JavYt9NJaU9y122JEBoCtNEQAvD_BwE
ライオンズマンション中野東,東京都中野区東中野４,6,ワンルーム,35.7092259,139.6853944,https://suumo.jp/?vos=op0014adwstw099000000zzz_01xmsyt111-xe_aud-381243375587:kwd-13279118830:cr-552805620393:sl-:adg-30983744560:dev-c:acc-6530195222:cam-385940440&gclsrc=aw.ds&gad=1&gclid=CjwKCAjwkeqkBhAnEiwA5U-uM0kvzgyzwIVH7Q3URI09yrGZ-p8iecUZxm4H9JavYt9NJaU9y123JEBoCtNEQAvD_BwE
ライオンズマンション中野東,東京都中野区東中野４,6.5,ワンルーム,35.7092259,139.6853944,https://suumo.jp/?vos=op0014adwstw099000000zzz_01xmsyt111-xe_aud-381243375587:kwd-13279118830:cr-552805620393:sl-:adg-30983744560:dev-c:acc-6530195222:cam-385940440&gclsrc=aw.ds&gad=1&gclid=CjwKCAjwkeqkBhAnEiwA5U-uM0kvzgyzwIVH7Q3URI09yrGZ-p8iecUZxm4H9JavYt9NJaU9y124JEBoCtNEQAvD_BwE
イッツ東中野,東京都中野区東中野４,5.8,ワンルーム,35.7092259,139.6853944,https://suumo.jp/?vos=op0014adwstw099000000zzz_01xmsyt111-xe_aud-381243375587:kwd-13279118830:cr-552805620393:sl-:adg-30983744560:dev-c:acc-6530195222:cam-385940440&gclsrc=aw.ds&gad=1&gclid=CjwKCAjwkeqkBhAnEiwA5U-uM0kvzgyzwIVH7Q3URI09yrGZ-p8iecUZxm4H9JavYt9NJaU9y125JEBoCtNEQAvD_BwE
イッツ東中野,東京都中野区東中野４,5.9,ワンルーム,35.7092259,139.6853944,https://suumo.jp/?vos=op0014adwstw099000000zzz_01xmsyt111-xe_aud-381243375587:kwd-13279118830:cr-552805620393:sl-:adg-30983744560:dev-c:acc-6530195222:cam-385940440&gclsrc=aw.ds&gad=1&gclid=CjwKCAjwkeqkBhAnEiwA5U-uM0kvzgyzwIVH7Q3URI09yrGZ-p8iecUZxm4H9JavYt9NJaU9y126JEBoCtNEQAvD_BwE
イッツ東中野,東京都中野区東中野４,5.9,ワンルーム,35.7092259,139.6853944,https://suumo.jp/?vos=op0014adwstw099000000zzz_01xmsyt111-xe_aud-381243375587:kwd-13279118830:cr-552805620393:sl-:adg-30983744560:dev-c:acc-6530195222:cam-385940440&gclsrc=aw.ds&gad=1&gclid=CjwKCAjwkeqkBhAnEiwA5U-uM0kvzgyzwIVH7Q3URI09yrGZ-p8iecUZxm4H9JavYt9NJaU9y127JEBoCtNEQAvD_BwE
メゾン・ド・レクトゥール,東京都中野区東中野５,4.9,ワンルーム,35.7084721,139.689223,https://suumo.jp/?vos=op0014adwstw099000000zzz_01xmsyt111-xe_aud-381243375587:kwd-13279118830:cr-552805620393:sl-:adg-30983744560:dev-c:acc-6530195222:cam-385940440&gclsrc=aw.ds&gad=1&gclid=CjwKCAjwkeqkBhAnEiwA5U-uM0kvzgyzwIVH7Q3URI09yrGZ-p8iecUZxm4H9JavYt9NJaU9y128JEBoCtNEQAvD_BwE
メゾン・ド・レクトゥール,東京都中野区東中野５,5.4,ワンルーム,35.7084721,139.689223,https://suumo.jp/?vos=op0014adwstw099000000zzz_01xmsyt111-xe_aud-381243375587:kwd-13279118830:cr-552805620393:sl-:adg-30983744560:dev-c:acc-6530195222:cam-385940440&gclsrc=aw.ds&gad=1&gclid=CjwKCAjwkeqkBhAnEiwA5U-uM0kvzgyzwIVH7Q3URI09yrGZ-p8iecUZxm4H9JavYt9NJaU9y129JEBoCtNEQAvD_BwE
三越東中野マンション,東京都中野区東中野４,7.6,ワンルーム,35.7092259,139.6853944,https://suumo.jp/?vos=op0014adwstw099000000zzz_01xmsyt111-xe_aud-381243375587:kwd-13279118830:cr-552805620393:sl-:adg-30983744560:dev-c:acc-6530195222:cam-385940440&gclsrc=aw.ds&gad=1&gclid=CjwKCAjwkeqkBhAnEiwA5U-uM0kvzgyzwIVH7Q3URI09yrGZ-p8iecUZxm4H9JavYt9NJaU9y130JEBoCtNEQAvD_BwE
三越東中野マンション,東京都中野区東中野４,11.4,ワンルーム,35.7092259,139.6853944,https://suumo.jp/?vos=op0014adwstw099000000zzz_01xmsyt111-xe_aud-381243375587:kwd-13279118830:cr-552805620393:sl-:adg-30983744560:dev-c:acc-6530195222:cam-385940440&gclsrc=aw.ds&gad=1&gclid=CjwKCAjwkeqkBhAnEiwA5U-uM0kvzgyzwIVH7Q3URI09yrGZ-p8iecUZxm4H9JavYt9NJaU9y131JEBoCtNEQAvD_BwE
三越東中野マンション,東京都中野区東中野４,11.4,ワンルーム,35.7092259,139.6853944,https://suumo.jp/?vos=op0014adwstw099000000zzz_01xmsyt111-xe_aud-381243375587:kwd-13279118830:cr-552805620393:sl-:adg-30983744560:dev-c:acc-6530195222:cam-385940440&gclsrc=aw.ds&gad=1&gclid=CjwKCAjwkeqkBhAnEiwA5U-uM0kvzgyzwIVH7Q3URI09yrGZ-p8iecUZxm4H9JavYt9NJaU9y132JEBoCtNEQAvD_BwE
三越東中野マンション,東京都中野区東中野４,11.6,ワンルーム,35.7092259,139.6853944,https://suumo.jp/?vos=op0014adwstw099000000zzz_01xmsyt111-xe_aud-381243375587:kwd-13279118830:cr-552805620393:sl-:adg-30983744560:dev-c:acc-6530195222:cam-385940440&gclsrc=aw.ds&gad=1&gclid=CjwKCAjwkeqkBhAnEiwA5U-uM0kvzgyzwIVH7Q3URI09yrGZ-p8iecUZxm4H9JavYt9NJaU9y133JEBoCtNEQAvD_BwE
三越東中野マンション,東京都中野区東中野４,12,ワンルーム,35.7092259,139.6853944,https://suumo.jp/?vos=op0014adwstw099000000zzz_01xmsyt111-xe_aud-381243375587:kwd-13279118830:cr-552805620393:sl-:adg-30983744560:dev-c:acc-6530195222:cam-385940440&gclsrc=aw.ds&gad=1&gclid=CjwKCAjwkeqkBhAnEiwA5U-uM0kvzgyzwIVH7Q3URI09yrGZ-p8iecUZxm4H9JavYt9NJaU9y134JEBoCtNEQAvD_BwE
三越東中野マンション,東京都中野区東中野４,13.5,2LDK,35.7092259,139.6853944,https://suumo.jp/?vos=op0014adwstw099000000zzz_01xmsyt111-xe_aud-381243375587:kwd-13279118830:cr-552805620393:sl-:adg-30983744560:dev-c:acc-6530195222:cam-385940440&gclsrc=aw.ds&gad=1&gclid=CjwKCAjwkeqkBhAnEiwA5U-uM0kvzgyzwIVH7Q3URI09yrGZ-p8iecUZxm4H9JavYt9NJaU9y135JEBoCtNEQAvD_BwE
三越東中野マンション,東京都中野区東中野４,12.5,ワンルーム,35.7092259,139.6853944,https://suumo.jp/?vos=op0014adwstw099000000zzz_01xmsyt111-xe_aud-381243375587:kwd-13279118830:cr-552805620393:sl-:adg-30983744560:dev-c:acc-6530195222:cam-385940440&gclsrc=aw.ds&gad=1&gclid=CjwKCAjwkeqkBhAnEiwA5U-uM0kvzgyzwIVH7Q3URI09yrGZ-p8iecUZxm4H9JavYt9NJaU9y136JEBoCtNEQAvD_BwE
ソレーユ 東中野,東京都中野区東中野５,15,1LDK,35.7084721,139.689223,https://suumo.jp/?vos=op0014adwstw099000000zzz_01xmsyt111-xe_aud-381243375587:kwd-13279118830:cr-552805620393:sl-:adg-30983744560:dev-c:acc-6530195222:cam-385940440&gclsrc=aw.ds&gad=1&gclid=CjwKCAjwkeqkBhAnEiwA5U-uM0kvzgyzwIVH7Q3URI09yrGZ-p8iecUZxm4H9JavYt9NJaU9y137JEBoCtNEQAvD_BwE
カーサ・プルニア,東京都中野区上高田１,13.5,2LDK,35.7102195,139.676462,https://suumo.jp/?vos=op0014adwstw099000000zzz_01xmsyt111-xe_aud-381243375587:kwd-13279118830:cr-552805620393:sl-:adg-30983744560:dev-c:acc-6530195222:cam-385940440&gclsrc=aw.ds&gad=1&gclid=CjwKCAjwkeqkBhAnEiwA5U-uM0kvzgyzwIVH7Q3URI09yrGZ-p8iecUZxm4H9JavYt9NJaU9y138JEBoCtNEQAvD_BwE
東京メトロ東西線 落合駅 地下1地上3階建 築17年,東京都中野区東中野５,16.3,1LDK,35.7084721,139.689223,https://suumo.jp/?vos=op0014adwstw099000000zzz_01xmsyt111-xe_aud-381243375587:kwd-13279118830:cr-552805620393:sl-:adg-30983744560:dev-c:acc-6530195222:cam-385940440&gclsrc=aw.ds&gad=1&gclid=CjwKCAjwkeqkBhAnEiwA5U-uM0kvzgyzwIVH7Q3URI09yrGZ-p8iecUZxm4H9JavYt9NJaU9y139JEBoCtNEQAvD_BwE
東京メトロ東西線 落合駅 10階建 築9年,東京都中野区中野５,16.3,1LDK,35.7082862,139.6688067,https://suumo.jp/?vos=op0014adwstw099000000zzz_01xmsyt111-xe_aud-381243375587:kwd-13279118830:cr-552805620393:sl-:adg-30983744560:dev-c:acc-6530195222:cam-385940440&gclsrc=aw.ds&gad=1&gclid=CjwKCAjwkeqkBhAnEiwA5U-uM0kvzgyzwIVH7Q3URI09yrGZ-p8iecUZxm4H9JavYt9NJaU9y140JEBoCtNEQAvD_BwE
小滝台マンション（ＥＡＳＴ）,東京都中野区東中野５,14,1SLDK,35.7084721,139.689223,https://suumo.jp/?vos=op0014adwstw099000000zzz_01xmsyt111-xe_aud-381243375587:kwd-13279118830:cr-552805620393:sl-:adg-30983744560:dev-c:acc-6530195222:cam-385940440&gclsrc=aw.ds&gad=1&gclid=CjwKCAjwkeqkBhAnEiwA5U-uM0kvzgyzwIVH7Q3URI09yrGZ-p8iecUZxm4H9JavYt9NJaU9y141JEBoCtNEQAvD_BwE
東京メトロ東西線 落合駅 11階建 築14年,東京都中野区東中野４,14.8,1LDK,35.7092259,139.6853944,https://suumo.jp/?vos=op0014adwstw099000000zzz_01xmsyt111-xe_aud-381243375587:kwd-13279118830:cr-552805620393:sl-:adg-30983744560:dev-c:acc-6530195222:cam-385940440&gclsrc=aw.ds&gad=1&gclid=CjwKCAjwkeqkBhAnEiwA5U-uM0kvzgyzwIVH7Q3URI09yrGZ-p8iecUZxm4H9JavYt9NJaU9y142JEBoCtNEQAvD_BwE
ウェンゲン(上高田),東京都中野区上高田５,11.2,2DK,35.7170983,139.676462,https://suumo.jp/?vos=op0014adwstw099000000zzz_01xmsyt111-xe_aud-381243375587:kwd-13279118830:cr-552805620393:sl-:adg-30983744560:dev-c:acc-6530195222:cam-385940440&gclsrc=aw.ds&gad=1&gclid=CjwKCAjwkeqkBhAnEiwA5U-uM0kvzgyzwIVH7Q3URI09yrGZ-p8iecUZxm4H9JavYt9NJaU9y143JEBoCtNEQAvD_BwE
ウェンゲン(上高田),東京都中野区上高田５,11.2,2DK,35.7170983,139.676462,https://suumo.jp/?vos=op0014adwstw099000000zzz_01xmsyt111-xe_aud-381243375587:kwd-13279118830:cr-552805620393:sl-:adg-30983744560:dev-c:acc-6530195222:cam-385940440&gclsrc=aw.ds&gad=1&gclid=CjwKCAjwkeqkBhAnEiwA5U-uM0kvzgyzwIVH7Q3URI09yrGZ-p8iecUZxm4H9JavYt9NJaU9y144JEBoCtNEQAvD_BwE
ウェンゲン(上高田),東京都中野区上高田５,11.2,2DK,35.7170983,139.676462,https://suumo.jp/?vos=op0014adwstw099000000zzz_01xmsyt111-xe_aud-381243375587:kwd-13279118830:cr-552805620393:sl-:adg-30983744560:dev-c:acc-6530195222:cam-385940440&gclsrc=aw.ds&gad=1&gclid=CjwKCAjwkeqkBhAnEiwA5U-uM0kvzgyzwIVH7Q3URI09yrGZ-p8iecUZxm4H9JavYt9NJaU9y145JEBoCtNEQAvD_BwE
ウェンゲン(上高田),東京都中野区上高田５,11.2,2DK,35.7170983,139.676462,https://suumo.jp/?vos=op0014adwstw099000000zzz_01xmsyt111-xe_aud-381243375587:kwd-13279118830:cr-552805620393:sl-:adg-30983744560:dev-c:acc-6530195222:cam-385940440&gclsrc=aw.ds&gad=1&gclid=CjwKCAjwkeqkBhAnEiwA5U-uM0kvzgyzwIVH7Q3URI09yrGZ-p8iecUZxm4H9JavYt9NJaU9y146JEBoCtNEQAvD_BwE
ウェンゲン(上高田),東京都中野区上高田５,11.2,2DK,35.7170983,139.676462,https://suumo.jp/?vos=op0014adwstw099000000zzz_01xmsyt111-xe_aud-381243375587:kwd-13279118830:cr-552805620393:sl-:adg-30983744560:dev-c:acc-6530195222:cam-385940440&gclsrc=aw.ds&gad=1&gclid=CjwKCAjwkeqkBhAnEiwA5U-uM0kvzgyzwIVH7Q3URI09yrGZ-p8iecUZxm4H9JavYt9NJaU9y147JEBoCtNEQAvD_BwE
ウェンゲン(上高田),東京都中野区上高田５,11.5,2DK,35.7170983,139.676462,https://suumo.jp/?vos=op0014adwstw099000000zzz_01xmsyt111-xe_aud-381243375587:kwd-13279118830:cr-552805620393:sl-:adg-30983744560:dev-c:acc-6530195222:cam-385940440&gclsrc=aw.ds&gad=1&gclid=CjwKCAjwkeqkBhAnEiwA5U-uM0kvzgyzwIVH7Q3URI09yrGZ-p8iecUZxm4H9JavYt9NJaU9y148JEBoCtNEQAvD_BwE
東京メトロ東西線 落合駅 3階建 築6年,東京都中野区東中野４,17,1LDK,35.7092259,139.6853944,https://suumo.jp/?vos=op0014adwstw099000000zzz_01xmsyt111-xe_aud-381243375587:kwd-13279118830:cr-552805620393:sl-:adg-30983744560:dev-c:acc-6530195222:cam-385940440&gclsrc=aw.ds&gad=1&gclid=CjwKCAjwkeqkBhAnEiwA5U-uM0kvzgyzwIVH7Q3URI09yrGZ-p8iecUZxm4H9JavYt9NJaU9y149JEBoCtNEQAvD_BwE
ヒルトップハイツ,東京都中野区東中野５,8.5,1K,35.7084721,139.689223,https://suumo.jp/?vos=op0014adwstw099000000zzz_01xmsyt111-xe_aud-381243375587:kwd-13279118830:cr-552805620393:sl-:adg-30983744560:dev-c:acc-6530195222:cam-385940440&gclsrc=aw.ds&gad=1&gclid=CjwKCAjwkeqkBhAnEiwA5U-uM0kvzgyzwIVH7Q3URI09yrGZ-p8iecUZxm4H9JavYt9NJaU9y150JEBoCtNEQAvD_BwE
東京メトロ東西線 落合駅 2階建 築7年,東京都中野区上高田１,7.5,1K,35.7102195,139.676462,https://suumo.jp/?vos=op0014adwstw099000000zzz_01xmsyt111-xe_aud-381243375587:kwd-13279118830:cr-552805620393:sl-:adg-30983744560:dev-c:acc-6530195222:cam-385940440&gclsrc=aw.ds&gad=1&gclid=CjwKCAjwkeqkBhAnEiwA5U-uM0kvzgyzwIVH7Q3URI09yrGZ-p8iecUZxm4H9JavYt9NJaU9y151JEBoCtNEQAvD_BwE
サンガーデンハイツ戸建,東京都中野区東中野４,20,4LDK,35.7092259,139.6853944,https://suumo.jp/?vos=op0014adwstw099000000zzz_01xmsyt111-xe_aud-381243375587:kwd-13279118830:cr-552805620393:sl-:adg-30983744560:dev-c:acc-6530195222:cam-385940440&gclsrc=aw.ds&gad=1&gclid=CjwKCAjwkeqkBhAnEiwA5U-uM0kvzgyzwIVH7Q3URI09yrGZ-p8iecUZxm4H9JavYt9NJaU9y152JEBoCtNEQAvD_BwE
東京メトロ東西線 落合駅 2階建 築43年,東京都中野区東中野４,20,4LDK,35.7092259,139.6853944,https://suumo.jp/?vos=op0014adwstw099000000zzz_01xmsyt111-xe_aud-381243375587:kwd-13279118830:cr-552805620393:sl-:adg-30983744560:dev-c:acc-6530195222:cam-385940440&gclsrc=aw.ds&gad=1&gclid=CjwKCAjwkeqkBhAnEiwA5U-uM0kvzgyzwIVH7Q3URI09yrGZ-p8iecUZxm4H9JavYt9NJaU9y153JEBoCtNEQAvD_BwE
東中野ハイム（０１２４８５）,東京都中野区東中野５,14.5,3DK,35.7084721,139.689223,https://suumo.jp/?vos=op0014adwstw099000000zzz_01xmsyt111-xe_aud-381243375587:kwd-13279118830:cr-552805620393:sl-:adg-30983744560:dev-c:acc-6530195222:cam-385940440&gclsrc=aw.ds&gad=1&gclid=CjwKCAjwkeqkBhAnEiwA5U-uM0kvzgyzwIVH7Q3URI09yrGZ-p8iecUZxm4H9JavYt9NJaU9y154JEBoCtNEQAvD_BwE
ア−サメイジャ−,東京都中野区東中野３,13,2DK,35.7076863,139.6815661,https://suumo.jp/?vos=op0014adwstw099000000zzz_01xmsyt111-xe_aud-381243375587:kwd-13279118830:cr-552805620393:sl-:adg-30983744560:dev-c:acc-6530195222:cam-385940440&gclsrc=aw.ds&gad=1&gclid=CjwKCAjwkeqkBhAnEiwA5U-uM0kvzgyzwIVH7Q3URI09yrGZ-p8iecUZxm4H9JavYt9NJaU9y155JEBoCtNEQAvD_BwE
カミーノ,東京都中野区東中野４,6.7,1K,35.7092259,139.6853944,https://suumo.jp/?vos=op0014adwstw099000000zzz_01xmsyt111-xe_aud-381243375587:kwd-13279118830:cr-552805620393:sl-:adg-30983744560:dev-c:acc-6530195222:cam-385940440&gclsrc=aw.ds&gad=1&gclid=CjwKCAjwkeqkBhAnEiwA5U-uM0kvzgyzwIVH7Q3URI09yrGZ-p8iecUZxm4H9JavYt9NJaU9y156JEBoCtNEQAvD_BwE
カミーノ,東京都中野区東中野４,6.9,1K,35.7092259,139.6853944,https://suumo.jp/?vos=op0014adwstw099000000zzz_01xmsyt111-xe_aud-381243375587:kwd-13279118830:cr-552805620393:sl-:adg-30983744560:dev-c:acc-6530195222:cam-385940440&gclsrc=aw.ds&gad=1&gclid=CjwKCAjwkeqkBhAnEiwA5U-uM0kvzgyzwIVH7Q3URI09yrGZ-p8iecUZxm4H9JavYt9NJaU9y157JEBoCtNEQAvD_BwE
東京メトロ東西線 落合駅 3階建 築18年,東京都中野区東中野４,6.9,1K,35.7092259,139.6853944,https://suumo.jp/?vos=op0014adwstw099000000zzz_01xmsyt111-xe_aud-381243375587:kwd-13279118830:cr-552805620393:sl-:adg-30983744560:dev-c:acc-6530195222:cam-385940440&gclsrc=aw.ds&gad=1&gclid=CjwKCAjwkeqkBhAnEiwA5U-uM0kvzgyzwIVH7Q3URI09yrGZ-p8iecUZxm4H9JavYt9NJaU9y158JEBoCtNEQAvD_BwE
アドリアーノ,東京都中野区東中野４,11.3,1DK,35.7092259,139.6853944,https://suumo.jp/?vos=op0014adwstw099000000zzz_01xmsyt111-xe_aud-381243375587:kwd-13279118830:cr-552805620393:sl-:adg-30983744560:dev-c:acc-6530195222:cam-385940440&gclsrc=aw.ds&gad=1&gclid=CjwKCAjwkeqkBhAnEiwA5U-uM0kvzgyzwIVH7Q3URI09yrGZ-p8iecUZxm4H9JavYt9NJaU9y159JEBoCtNEQAvD_BwE
東京メトロ東西線 落合駅 8階建 築29年,東京都中野区東中野５,6.2,1K,35.7084721,139.689223,https://suumo.jp/?vos=op0014adwstw099000000zzz_01xmsyt111-xe_aud-381243375587:kwd-13279118830:cr-552805620393:sl-:adg-30983744560:dev-c:acc-6530195222:cam-385940440&gclsrc=aw.ds&gad=1&gclid=CjwKCAjwkeqkBhAnEiwA5U-uM0kvzgyzwIVH7Q3URI09yrGZ-p8iecUZxm4H9JavYt9NJaU9y160JEBoCtNEQAvD_BwE
フェリスピレー,東京都中野区上高田３,5.4,ワンルーム,35.7139371,139.6735912,https://suumo.jp/?vos=op0014adwstw099000000zzz_01xmsyt111-xe_aud-381243375587:kwd-13279118830:cr-552805620393:sl-:adg-30983744560:dev-c:acc-6530195222:cam-385940440&gclsrc=aw.ds&gad=1&gclid=CjwKCAjwkeqkBhAnEiwA5U-uM0kvzgyzwIVH7Q3URI09yrGZ-p8iecUZxm4H9JavYt9NJaU9y161JEBoCtNEQAvD_BwE
フェリスピレー,東京都中野区上高田３,5.5,ワンルーム,35.7139371,139.6735912,https://suumo.jp/?vos=op0014adwstw099000000zzz_01xmsyt111-xe_aud-381243375587:kwd-13279118830:cr-552805620393:sl-:adg-30983744560:dev-c:acc-6530195222:cam-385940440&gclsrc=aw.ds&gad=1&gclid=CjwKCAjwkeqkBhAnEiwA5U-uM0kvzgyzwIVH7Q3URI09yrGZ-p8iecUZxm4H9JavYt9NJaU9y162JEBoCtNEQAvD_BwE
東京メトロ東西線 落合駅 14階建 築14年,東京都中野区東中野５,10.5,ワンルーム,35.7084721,139.689223,https://suumo.jp/?vos=op0014adwstw099000000zzz_01xmsyt111-xe_aud-381243375587:kwd-13279118830:cr-552805620393:sl-:adg-30983744560:dev-c:acc-6530195222:cam-385940440&gclsrc=aw.ds&gad=1&gclid=CjwKCAjwkeqkBhAnEiwA5U-uM0kvzgyzwIVH7Q3URI09yrGZ-p8iecUZxm4H9JavYt9NJaU9y163JEBoCtNEQAvD_BwE
ルームズ東中野,東京都中野区東中野１,5.5,ワンルーム,35.7034927,139.6853944,https://suumo.jp/?vos=op0014adwstw099000000zzz_01xmsyt111-xe_aud-381243375587:kwd-13279118830:cr-552805620393:sl-:adg-30983744560:dev-c:acc-6530195222:cam-385940440&gclsrc=aw.ds&gad=1&gclid=CjwKCAjwkeqkBhAnEiwA5U-uM0kvzgyzwIVH7Q3URI09yrGZ-p8iecUZxm4H9JavYt9NJaU9y164JEBoCtNEQAvD_BwE
ルームズ東中野,東京都中野区東中野１,5.5,ワンルーム,35.7034927,139.6853944,https://suumo.jp/?vos=op0014adwstw099000000zzz_01xmsyt111-xe_aud-381243375587:kwd-13279118830:cr-552805620393:sl-:adg-30983744560:dev-c:acc-6530195222:cam-385940440&gclsrc=aw.ds&gad=1&gclid=CjwKCAjwkeqkBhAnEiwA5U-uM0kvzgyzwIVH7Q3URI09yrGZ-p8iecUZxm4H9JavYt9NJaU9y165JEBoCtNEQAvD_BwE
ルームズ東中野,東京都中野区東中野１,6.6,ワンルーム,35.7034927,139.6853944,https://suumo.jp/?vos=op0014adwstw099000000zzz_01xmsyt111-xe_aud-381243375587:kwd-13279118830:cr-552805620393:sl-:adg-30983744560:dev-c:acc-6530195222:cam-385940440&gclsrc=aw.ds&gad=1&gclid=CjwKCAjwkeqkBhAnEiwA5U-uM0kvzgyzwIVH7Q3URI09yrGZ-p8iecUZxm4H9JavYt9NJaU9y166JEBoCtNEQAvD_BwE
ルームズ東中野,東京都中野区東中野１,6.7,ワンルーム,35.7034927,139.6853944,https://suumo.jp/?vos=op0014adwstw099000000zzz_01xmsyt111-xe_aud-381243375587:kwd-13279118830:cr-552805620393:sl-:adg-30983744560:dev-c:acc-6530195222:cam-385940440&gclsrc=aw.ds&gad=1&gclid=CjwKCAjwkeqkBhAnEiwA5U-uM0kvzgyzwIVH7Q3URI09yrGZ-p8iecUZxm4H9JavYt9NJaU9y167JEBoCtNEQAvD_BwE
上高田1丁目,東京都中野区上高田１,5.3,ワンルーム,35.7102195,139.676462,https://suumo.jp/?vos=op0014adwstw099000000zzz_01xmsyt111-xe_aud-381243375587:kwd-13279118830:cr-552805620393:sl-:adg-30983744560:dev-c:acc-6530195222:cam-385940440&gclsrc=aw.ds&gad=1&gclid=CjwKCAjwkeqkBhAnEiwA5U-uM0kvzgyzwIVH7Q3URI09yrGZ-p8iecUZxm4H9JavYt9NJaU9y168JEBoCtNEQAvD_BwE
アイリスコ−ト,東京都中野区上高田４,6.2,1K,35.7141723,139.677738,https://suumo.jp/?vos=op0014adwstw099000000zzz_01xmsyt111-xe_aud-381243375587:kwd-13279118830:cr-552805620393:sl-:adg-30983744560:dev-c:acc-6530195222:cam-385940440&gclsrc=aw.ds&gad=1&gclid=CjwKCAjwkeqkBhAnEiwA5U-uM0kvzgyzwIVH7Q3URI09yrGZ-p8iecUZxm4H9JavYt9NJaU9y169JEBoCtNEQAvD_BwE
Ｋフラット,東京都中野区東中野５,6.5,1K,35.7084721,139.689223,https://suumo.jp/?vos=op0014adwstw099000000zzz_01xmsyt111-xe_aud-381243375587:kwd-13279118830:cr-552805620393:sl-:adg-30983744560:dev-c:acc-6530195222:cam-385940440&gclsrc=aw.ds&gad=1&gclid=CjwKCAjwkeqkBhAnEiwA5U-uM0kvzgyzwIVH7Q3URI09yrGZ-p8iecUZxm4H9JavYt9NJaU9y170JEBoCtNEQAvD_BwE
ハーモニーテラス中野II,東京都中野区中野６,6.15,ワンルーム,35.7074132,139.6751861,https://suumo.jp/?vos=op0014adwstw099000000zzz_01xmsyt111-xe_aud-381243375587:kwd-13279118830:cr-552805620393:sl-:adg-30983744560:dev-c:acc-6530195222:cam-385940440&gclsrc=aw.ds&gad=1&gclid=CjwKCAjwkeqkBhAnEiwA5U-uM0kvzgyzwIVH7Q3URI09yrGZ-p8iecUZxm4H9JavYt9NJaU9y171JEBoCtNEQAvD_BwE
クレール落合,東京都中野区東中野５,6.1,1K,35.7084721,139.689223,https://suumo.jp/?vos=op0014adwstw099000000zzz_01xmsyt111-xe_aud-381243375587:kwd-13279118830:cr-552805620393:sl-:adg-30983744560:dev-c:acc-6530195222:cam-385940440&gclsrc=aw.ds&gad=1&gclid=CjwKCAjwkeqkBhAnEiwA5U-uM0kvzgyzwIVH7Q3URI09yrGZ-p8iecUZxm4H9JavYt9NJaU9y172JEBoCtNEQAvD_BwE
アーバンプレイス落合II,東京都中野区上高田１,5.3,ワンルーム,35.7102195,139.676462,https://suumo.jp/?vos=op0014adwstw099000000zzz_01xmsyt111-xe_aud-381243375587:kwd-13279118830:cr-552805620393:sl-:adg-30983744560:dev-c:acc-6530195222:cam-385940440&gclsrc=aw.ds&gad=1&gclid=CjwKCAjwkeqkBhAnEiwA5U-uM0kvzgyzwIVH7Q3URI09yrGZ-p8iecUZxm4H9JavYt9NJaU9y173JEBoCtNEQAvD_BwE
アイリスコ−トＣ棟,東京都中野区上高田４,5.5,1K,35.7141723,139.677738,https://suumo.jp/?vos=op0014adwstw099000000zzz_01xmsyt111-xe_aud-381243375587:kwd-13279118830:cr-552805620393:sl-:adg-30983744560:dev-c:acc-6530195222:cam-385940440&gclsrc=aw.ds&gad=1&gclid=CjwKCAjwkeqkBhAnEiwA5U-uM0kvzgyzwIVH7Q3URI09yrGZ-p8iecUZxm4H9JavYt9NJaU9y174JEBoCtNEQAvD_BwE
アイリスコ−トＣ棟,東京都中野区上高田４,5.5,1K,35.7141723,139.677738,https://suumo.jp/?vos=op0014adwstw099000000zzz_01xmsyt111-xe_aud-381243375587:kwd-13279118830:cr-552805620393:sl-:adg-30983744560:dev-c:acc-6530195222:cam-385940440&gclsrc=aw.ds&gad=1&gclid=CjwKCAjwkeqkBhAnEiwA5U-uM0kvzgyzwIVH7Q3URI09yrGZ-p8iecUZxm4H9JavYt9NJaU9y175JEBoCtNEQAvD_BwE
東京メトロ東西線 落合駅 8階建 築47年,東京都中野区東中野４,14.7,1LDK,35.7092259,139.6853944,https://suumo.jp/?vos=op0014adwstw099000000zzz_01xmsyt111-xe_aud-381243375587:kwd-13279118830:cr-552805620393:sl-:adg-30983744560:dev-c:acc-6530195222:cam-385940440&gclsrc=aw.ds&gad=1&gclid=CjwKCAjwkeqkBhAnEiwA5U-uM0kvzgyzwIVH7Q3URI09yrGZ-p8iecUZxm4H9JavYt9NJaU9y176JEBoCtNEQAvD_BwE
東京メトロ東西線 落合駅 2階建 築9年,東京都中野区上高田１,6.1,ワンルーム,35.7102195,139.676462,https://suumo.jp/?vos=op0014adwstw099000000zzz_01xmsyt111-xe_aud-381243375587:kwd-13279118830:cr-552805620393:sl-:adg-30983744560:dev-c:acc-6530195222:cam-385940440&gclsrc=aw.ds&gad=1&gclid=CjwKCAjwkeqkBhAnEiwA5U-uM0kvzgyzwIVH7Q3URI09yrGZ-p8iecUZxm4H9JavYt9NJaU9y177JEBoCtNEQAvD_BwE
東京メトロ東西線 落合駅 2階建 築42年,東京都中野区東中野３,7.2,1DK,35.7076863,139.6815661,https://suumo.jp/?vos=op0014adwstw099000000zzz_01xmsyt111-xe_aud-381243375587:kwd-13279118830:cr-552805620393:sl-:adg-30983744560:dev-c:acc-6530195222:cam-385940440&gclsrc=aw.ds&gad=1&gclid=CjwKCAjwkeqkBhAnEiwA5U-uM0kvzgyzwIVH7Q3URI09yrGZ-p8iecUZxm4H9JavYt9NJaU9y178JEBoCtNEQAvD_BwE
コーポ加藤,東京都中野区東中野３,7.2,1DK,35.7076863,139.6815661,https://suumo.jp/?vos=op0014adwstw099000000zzz_01xmsyt111-xe_aud-381243375587:kwd-13279118830:cr-552805620393:sl-:adg-30983744560:dev-c:acc-6530195222:cam-385940440&gclsrc=aw.ds&gad=1&gclid=CjwKCAjwkeqkBhAnEiwA5U-uM0kvzgyzwIVH7Q3URI09yrGZ-p8iecUZxm4H9JavYt9NJaU9y179JEBoCtNEQAvD_BwE
松田ビル,東京都中野区上高田１,5.3,1K,35.7102195,139.676462,https://suumo.jp/?vos=op0014adwstw099000000zzz_01xmsyt111-xe_aud-381243375587:kwd-13279118830:cr-552805620393:sl-:adg-30983744560:dev-c:acc-6530195222:cam-385940440&gclsrc=aw.ds&gad=1&gclid=CjwKCAjwkeqkBhAnEiwA5U-uM0kvzgyzwIVH7Q3URI09yrGZ-p8iecUZxm4H9JavYt9NJaU9y180JEBoCtNEQAvD_BwE
松田ビル,東京都中野区上高田１,5.5,1K,35.7102195,139.676462,https://suumo.jp/?vos=op0014adwstw099000000zzz_01xmsyt111-xe_aud-381243375587:kwd-13279118830:cr-552805620393:sl-:adg-30983744560:dev-c:acc-6530195222:cam-385940440&gclsrc=aw.ds&gad=1&gclid=CjwKCAjwkeqkBhAnEiwA5U-uM0kvzgyzwIVH7Q3URI09yrGZ-p8iecUZxm4H9JavYt9NJaU9y181JEBoCtNEQAvD_BwE
松田ビル,東京都中野区上高田１,6.8,1K,35.7102195,139.676462,https://suumo.jp/?vos=op0014adwstw099000000zzz_01xmsyt111-xe_aud-381243375587:kwd-13279118830:cr-552805620393:sl-:adg-30983744560:dev-c:acc-6530195222:cam-385940440&gclsrc=aw.ds&gad=1&gclid=CjwKCAjwkeqkBhAnEiwA5U-uM0kvzgyzwIVH7Q3URI09yrGZ-p8iecUZxm4H9JavYt9NJaU9y182JEBoCtNEQAvD_BwE
東京メトロ東西線 落合駅 2階建 築64年,東京都中野区東中野５,7,1DK,35.7084721,139.689223,https://suumo.jp/?vos=op0014adwstw099000000zzz_01xmsyt111-xe_aud-381243375587:kwd-13279118830:cr-552805620393:sl-:adg-30983744560:dev-c:acc-6530195222:cam-385940440&gclsrc=aw.ds&gad=1&gclid=CjwKCAjwkeqkBhAnEiwA5U-uM0kvzgyzwIVH7Q3URI09yrGZ-p8iecUZxm4H9JavYt9NJaU9y183JEBoCtNEQAvD_BwE
東京メトロ東西線 落合駅 2階建 築37年,東京都中野区東中野５,6,1K,35.7084721,139.689223,https://suumo.jp/?vos=op0014adwstw099000000zzz_01xmsyt111-xe_aud-381243375587:kwd-13279118830:cr-552805620393:sl-:adg-30983744560:dev-c:acc-6530195222:cam-385940440&gclsrc=aw.ds&gad=1&gclid=CjwKCAjwkeqkBhAnEiwA5U-uM0kvzgyzwIVH7Q3URI09yrGZ-p8iecUZxm4H9JavYt9NJaU9y184JEBoCtNEQAvD_BwE
東京メトロ東西線 落合駅 2階建 築32年,東京都中野区東中野４,6.5,1K,35.7092259,139.6853944,https://suumo.jp/?vos=op0014adwstw099000000zzz_01xmsyt111-xe_aud-381243375587:kwd-13279118830:cr-552805620393:sl-:adg-30983744560:dev-c:acc-6530195222:cam-385940440&gclsrc=aw.ds&gad=1&gclid=CjwKCAjwkeqkBhAnEiwA5U-uM0kvzgyzwIVH7Q3URI09yrGZ-p8iecUZxm4H9JavYt9NJaU9y185JEBoCtNEQAvD_BwE
東京メトロ東西線 落合駅 地下1地上2階建 築36年,東京都中野区上高田１,6,1K,35.7102195,139.676462,https://suumo.jp/?vos=op0014adwstw099000000zzz_01xmsyt111-xe_aud-381243375587:kwd-13279118830:cr-552805620393:sl-:adg-30983744560:dev-c:acc-6530195222:cam-385940440&gclsrc=aw.ds&gad=1&gclid=CjwKCAjwkeqkBhAnEiwA5U-uM0kvzgyzwIVH7Q3URI09yrGZ-p8iecUZxm4H9JavYt9NJaU9y186JEBoCtNEQAvD_BwE
レオパレスボストンハウスIII,東京都中野区東中野４,5.9,1K,35.7092259,139.6853944,https://suumo.jp/?vos=op0014adwstw099000000zzz_01xmsyt111-xe_aud-381243375587:kwd-13279118830:cr-552805620393:sl-:adg-30983744560:dev-c:acc-6530195222:cam-385940440&gclsrc=aw.ds&gad=1&gclid=CjwKCAjwkeqkBhAnEiwA5U-uM0kvzgyzwIVH7Q3URI09yrGZ-p8iecUZxm4H9JavYt9NJaU9y187JEBoCtNEQAvD_BwE
田中アパートメント,東京都中野区東中野３,5.9,1K,35.7076863,139.6815661,https://suumo.jp/?vos=op0014adwstw099000000zzz_01xmsyt111-xe_aud-381243375587:kwd-13279118830:cr-552805620393:sl-:adg-30983744560:dev-c:acc-6530195222:cam-385940440&gclsrc=aw.ds&gad=1&gclid=CjwKCAjwkeqkBhAnEiwA5U-uM0kvzgyzwIVH7Q3URI09yrGZ-p8iecUZxm4H9JavYt9NJaU9y188JEBoCtNEQAvD_BwE
田中アパートメント,東京都中野区東中野３,6.4,1K,35.7076863,139.6815661,https://suumo.jp/?vos=op0014adwstw099000000zzz_01xmsyt111-xe_aud-381243375587:kwd-13279118830:cr-552805620393:sl-:adg-30983744560:dev-c:acc-6530195222:cam-385940440&gclsrc=aw.ds&gad=1&gclid=CjwKCAjwkeqkBhAnEiwA5U-uM0kvzgyzwIVH7Q3URI09yrGZ-p8iecUZxm4H9JavYt9NJaU9y189JEBoCtNEQAvD_BwE
メゾンタナカ,東京都中野区上高田４,5.5,ワンルーム,35.7141723,139.677738,https://suumo.jp/?vos=op0014adwstw099000000zzz_01xmsyt111-xe_aud-381243375587:kwd-13279118830:cr-552805620393:sl-:adg-30983744560:dev-c:acc-6530195222:cam-385940440&gclsrc=aw.ds&gad=1&gclid=CjwKCAjwkeqkBhAnEiwA5U-uM0kvzgyzwIVH7Q3URI09yrGZ-p8iecUZxm4H9JavYt9NJaU9y190JEBoCtNEQAvD_BwE
メゾン青島,東京都中野区上高田１,6,1K,35.7102195,139.676462,https://suumo.jp/?vos=op0014adwstw099000000zzz_01xmsyt111-xe_aud-381243375587:kwd-13279118830:cr-552805620393:sl-:adg-30983744560:dev-c:acc-6530195222:cam-385940440&gclsrc=aw.ds&gad=1&gclid=CjwKCAjwkeqkBhAnEiwA5U-uM0kvzgyzwIVH7Q3URI09yrGZ-p8iecUZxm4H9JavYt9NJaU9y191JEBoCtNEQAvD_BwE
セザール東中野,東京都中野区東中野３,7.4,ワンルーム,35.7076863,139.6815661,https://suumo.jp/?vos=op0014adwstw099000000zzz_01xmsyt111-xe_aud-381243375587:kwd-13279118830:cr-552805620393:sl-:adg-30983744560:dev-c:acc-6530195222:cam-385940440&gclsrc=aw.ds&gad=1&gclid=CjwKCAjwkeqkBhAnEiwA5U-uM0kvzgyzwIVH7Q3URI09yrGZ-p8iecUZxm4H9JavYt9NJaU9y192JEBoCtNEQAvD_BwE
スズキビル,東京都中野区上高田１,6,1K,35.7102195,139.676462,https://suumo.jp/?vos=op0014adwstw099000000zzz_01xmsyt111-xe_aud-381243375587:kwd-13279118830:cr-552805620393:sl-:adg-30983744560:dev-c:acc-6530195222:cam-385940440&gclsrc=aw.ds&gad=1&gclid=CjwKCAjwkeqkBhAnEiwA5U-uM0kvzgyzwIVH7Q3URI09yrGZ-p8iecUZxm4H9JavYt9NJaU9y193JEBoCtNEQAvD_BwE
スズキビル,東京都中野区上高田１,6,1K,35.7102195,139.676462,https://suumo.jp/?vos=op0014adwstw099000000zzz_01xmsyt111-xe_aud-381243375587:kwd-13279118830:cr-552805620393:sl-:adg-30983744560:dev-c:acc-6530195222:cam-385940440&gclsrc=aw.ds&gad=1&gclid=CjwKCAjwkeqkBhAnEiwA5U-uM0kvzgyzwIVH7Q3URI09yrGZ-p8iecUZxm4H9JavYt9NJaU9y194JEBoCtNEQAvD_BwE
東京メトロ東西線 落合駅 地下1地上8階建 築37年,東京都中野区東中野４,6,ワンルーム,35.7092259,139.6853944,https://suumo.jp/?vos=op0014adwstw099000000zzz_01xmsyt111-xe_aud-381243375587:kwd-13279118830:cr-552805620393:sl-:adg-30983744560:dev-c:acc-6530195222:cam-385940440&gclsrc=aw.ds&gad=1&gclid=CjwKCAjwkeqkBhAnEiwA5U-uM0kvzgyzwIVH7Q3URI09yrGZ-p8iecUZxm4H9JavYt9NJaU9y195JEBoCtNEQAvD_BwE
東京メトロ東西線 落合駅 地下1地上8階建 築37年,東京都中野区東中野４,6.5,ワンルーム,35.7092259,139.6853944,https://suumo.jp/?vos=op0014adwstw099000000zzz_01xmsyt111-xe_aud-381243375587:kwd-13279118830:cr-552805620393:sl-:adg-30983744560:dev-c:acc-6530195222:cam-385940440&gclsrc=aw.ds&gad=1&gclid=CjwKCAjwkeqkBhAnEiwA5U-uM0kvzgyzwIVH7Q3URI09yrGZ-p8iecUZxm4H9JavYt9NJaU9y196JEBoCtNEQAvD_BwE
メゾンパークサイド,東京都中野区上高田１,4.5,ワンルーム,35.7102195,139.676462,https://suumo.jp/?vos=op0014adwstw099000000zzz_01xmsyt111-xe_aud-381243375587:kwd-13279118830:cr-552805620393:sl-:adg-30983744560:dev-c:acc-6530195222:cam-385940440&gclsrc=aw.ds&gad=1&gclid=CjwKCAjwkeqkBhAnEiwA5U-uM0kvzgyzwIVH7Q3URI09yrGZ-p8iecUZxm4H9JavYt9NJaU9y197JEBoCtNEQAvD_BwE
メゾンパークサイド,東京都中野区上高田１,4.8,ワンルーム,35.7102195,139.676462,https://suumo.jp/?vos=op0014adwstw099000000zzz_01xmsyt111-xe_aud-381243375587:kwd-13279118830:cr-552805620393:sl-:adg-30983744560:dev-c:acc-6530195222:cam-385940440&gclsrc=aw.ds&gad=1&gclid=CjwKCAjwkeqkBhAnEiwA5U-uM0kvzgyzwIVH7Q3URI09yrGZ-p8iecUZxm4H9JavYt9NJaU9y198JEBoCtNEQAvD_BwE
日興パレセゾン中野,東京都中野区上高田３,5.7,ワンルーム,35.7139371,139.6735912,https://suumo.jp/?vos=op0014adwstw099000000zzz_01xmsyt111-xe_aud-381243375587:kwd-13279118830:cr-552805620393:sl-:adg-30983744560:dev-c:acc-6530195222:cam-385940440&gclsrc=aw.ds&gad=1&gclid=CjwKCAjwkeqkBhAnEiwA5U-uM0kvzgyzwIVH7Q3URI09yrGZ-p8iecUZxm4H9JavYt9NJaU9y199JEBoCtNEQAvD_BwE
粟田荘,東京都中野区東中野４,5,1K,35.7092259,139.6853944,https://suumo.jp/?vos=op0014adwstw099000000zzz_01xmsyt111-xe_aud-381243375587:kwd-13279118830:cr-552805620393:sl-:adg-30983744560:dev-c:acc-6530195222:cam-385940440&gclsrc=aw.ds&gad=1&gclid=CjwKCAjwkeqkBhAnEiwA5U-uM0kvzgyzwIVH7Q3URI09yrGZ-p8iecUZxm4H9JavYt9NJaU9y200JEBoCtNEQAvD_BwE
東京メトロ東西線 落合駅 2階建 築53年,東京都中野区上高田１,6,ワンルーム,35.7102195,139.676462,https://suumo.jp/?vos=op0014adwstw099000000zzz_01xmsyt111-xe_aud-381243375587:kwd-13279118830:cr-552805620393:sl-:adg-30983744560:dev-c:acc-6530195222:cam-385940440&gclsrc=aw.ds&gad=1&gclid=CjwKCAjwkeqkBhAnEiwA5U-uM0kvzgyzwIVH7Q3URI09yrGZ-p8iecUZxm4H9JavYt9NJaU9y201JEBoCtNEQAvD_BwE
Ｙ’Ｓ　ＨＯＵＳＥ,東京都中野区東中野４,3.5,ワンルーム,35.7092259,139.6853944,https://suumo.jp/?vos=op0014adwstw099000000zzz_01xmsyt111-xe_aud-381243375587:kwd-13279118830:cr-552805620393:sl-:adg-30983744560:dev-c:acc-6530195222:cam-385940440&gclsrc=aw.ds&gad=1&gclid=CjwKCAjwkeqkBhAnEiwA5U-uM0kvzgyzwIVH7Q3URI09yrGZ-p8iecUZxm4H9JavYt9NJaU9y202JEBoCtNEQAvD_BwE
ステラ落合駅前,東京都中野区東中野３,27.6,1K,35.7076863,139.6815661,https://suumo.jp/?vos=op0014adwstw099000000zzz_01xmsyt111-xe_aud-381243375587:kwd-13279118830:cr-552805620393:sl-:adg-30983744560:dev-c:acc-6530195222:cam-385940440&gclsrc=aw.ds&gad=1&gclid=CjwKCAjwkeqkBhAnEiwA5U-uM0kvzgyzwIVH7Q3URI09yrGZ-p8iecUZxm4H9JavYt9NJaU9y203JEBoCtNEQAvD_BwE
ステラ落合駅前,東京都中野区東中野３,39.5,ワンルーム,35.7076863,139.6815661,https://suumo.jp/?vos=op0014adwstw099000000zzz_01xmsyt111-xe_aud-381243375587:kwd-13279118830:cr-552805620393:sl-:adg-30983744560:dev-c:acc-6530195222:cam-385940440&gclsrc=aw.ds&gad=1&gclid=CjwKCAjwkeqkBhAnEiwA5U-uM0kvzgyzwIVH7Q3URI09yrGZ-p8iecUZxm4H9JavYt9NJaU9y204JEBoCtNEQAvD_BwE
岩本荘,東京都中野区上高田１,4,ワンルーム,35.7102195,139.676462,https://suumo.jp/?vos=op0014adwstw099000000zzz_01xmsyt111-xe_aud-381243375587:kwd-13279118830:cr-552805620393:sl-:adg-30983744560:dev-c:acc-6530195222:cam-385940440&gclsrc=aw.ds&gad=1&gclid=CjwKCAjwkeqkBhAnEiwA5U-uM0kvzgyzwIVH7Q3URI09yrGZ-p8iecUZxm4H9JavYt9NJaU9y205JEBoCtNEQAvD_BwE
